stationNum,abbrev,usgsSiteId,stationName,dataSource,division,waterDistrict,county,state,utmX,utmY,latitude,longitude,locationAccuracy,startDate,endDate,modified,moreInformation,measUnit,num of rows,startDate_mod,endDate_mod,numYears
510,LADGRACO,9010100,"LADY CREEK NEAR GRAND LAKE, CO.",USGS,5,51,GRAND,CO,428220.5,4479773.7,40.465547,-105.846695,User supplied,6/1/69,9/30/75,6/17/15,http://cdss.state.co.us/onlineTools/Pages/ClimateStation.aspx,cfs,2312,6/1/69,9/30/75,6
511,ONAGRACO,9010600,"ONAHU CREEK NEAR GRAND LAKE, COLO.",USGS,5,51,GRAND,CO,428375.5,4463922.6,40.322772,-105.843073,User supplied,5/1/69,9/30/69,6/17/15,http://cdss.state.co.us/onlineTools/Pages/ClimateStation.aspx,cfs,152,5/1/69,9/30/69,0
512,COLALACO,9015500,"COLUMBINE CREEK ABV LAKE GRANBY, NR GRAND LAKE, CO",USGS,5,51,GRAND,CO,430171.7,4448773.5,40.186454,-105.820285,User supplied,4/1/50,9/30/55,6/17/15,http://cdss.state.co.us/onlineTools/Pages/ClimateStation.aspx,cfs,2008,4/1/50,9/30/55,5
513,ROAGRACO,9016000,"ROARING FORK ABOVE LAKE GRANBY, CO.",USGS,5,51,GRAND,CO,434610.6,4442559.3,40.130823,-105.767514,User supplied,10/1/51,9/30/55,6/17/15,http://cdss.state.co.us/onlineTools/Pages/ClimateStation.aspx,cfs,1460,10/1/51,9/30/55,3
514,FRAJIMCO,,"FRASER-JIM CREEK DIVERSION AT WINTER PARK, CO",DWB,5,51,GRAND,CO,436315,4415099,39.886654,-105.757507,User supplied,8/3/11,10/19/20,10/20/20,http://cdss.state.co.us/onlineTools/Pages/ClimateStation.aspx,cfs,3365,8/3/11,10/19/20,9
517,VASWINCO,9025000,"VASQUEZ CREEK AT WINTER PARK, CO",USGS,5,51,GRAND,CO,432889.9,4419202.6,39.920265,-105.785286,User supplied,8/1/34,10/19/20,10/20/20,http://cdss.state.co.us/onlineTools/Pages/ClimateStation.aspx,cfs,31491,8/1/34,10/19/20,86
518,SLOFRACO,9026500,"ST. LOUIS CREEK NEAR FRASER, CO.",USGS,5,51,GRAND,CO,424925.8,4418135.9,39.909987,-105.878345,User supplied,8/1/34,10/19/20,10/20/20,http://cdss.state.co.us/onlineTools/Pages/ClimateStation.aspx,cfs,31491,8/1/34,10/19/20,86
519,LIMUPACO,9034800,"LITTLE MUDDY CREEK NEAR PARSHALL, CO.",USGS,5,51,GRAND,CO,408708.1,4424202.1,39.963046,-106.068921,User supplied,10/1/58,9/30/65,6/17/15,http://cdss.state.co.us/onlineTools/Pages/ClimateStation.aspx,cfs,2556,10/1/58,9/30/65,6
520,DARNLECO,9035800,"DARLING CREEK NEAR LEAL, CO.",USGS,5,51,GRAND,CO,412130.9,4406123.5,39.800552,-106.026417,User supplied,10/1/65,9/30/11,6/20/16,http://cdss.state.co.us/onlineTools/Pages/ClimateStation.aspx,cfs,16800,10/1/65,9/30/11,45
521,SOFWINCO,9035830,"SO FK WILLIAMS FK NR PTARMIGAN PASS, CO",USGS,5,51,GRAND,CO,417485.8,4395364.7,39.704162,-105.962523,User supplied,10/1/84,9/30/86,6/17/15,http://cdss.state.co.us/onlineTools/Pages/ClimateStation.aspx,cfs,729,10/1/84,9/30/86,1
522,KEYLEACO,9036500,"KEYSER CREEK NEAR LEAL, CO.",USGS,5,51,GRAND,CO,413050.8,4417984.3,39.907489,-106.017248,User supplied,10/1/42,9/30/52,6/17/15,http://cdss.state.co.us/onlineTools/Pages/ClimateStation.aspx,cfs,3652,10/1/42,9/30/52,9
523,MUDATKCO,9041500,"MUDDY CREEK AT KREMMLING, CO.",DWR,5,50,GRAND,CO,380762.6,4435382.4,40.060267,-106.398093,,5/1/82,9/30/95,6/17/15,http://cdss.state.co.us/onlineTools/Pages/ClimateStation.aspx,cfs,4900,5/1/82,9/30/95,13
525,BEMCRECO,9044500,"BEMROSE CREEK NEAR HOOSIER PASS, CO.",USGS,5,36,SUMMIT,CO,409700,4358791.5,39.373887,-106.048363,User supplied,10/1/53,6/30/58,6/17/15,http://cdss.state.co.us/onlineTools/Pages/ClimateStation.aspx,cfs,1733,10/1/53,6/30/58,4
526,BLUNDICO,9046600,"BLUE RIVER NEAR DILLON, CO",USGS,5,36,SUMMIT,CO,409853.4,4380187.6,39.566653,-106.049463,User supplied,10/1/57,10/19/20,10/20/20,http://cdss.state.co.us/onlineTools/Pages/ClimateStation.aspx,cfs,23029,10/1/57,10/19/20,63
527,WESTENCO,9049200,"WEST TENMILE CREEK AT COPPER MOUNTAIN, CO.",USGS,5,36,SUMMIT,CO,399546.1,4373037.9,39.501105,-106.168368,User supplied,10/1/73,9/30/79,6/17/15,http://cdss.state.co.us/onlineTools/Pages/ClimateStation.aspx,cfs,2190,10/1/73,9/30/79,5
528,BLABLACO,9054000,"BLACK CREEK BELOW BLACK LAKE, NEAR DILLON, CO.",USGS,5,36,SUMMIT,CO,391415,4406234.8,39.79916,-106.268371,User supplied,7/1/42,9/30/94,6/17/15,http://cdss.state.co.us/onlineTools/Pages/ClimateStation.aspx,cfs,19084,7/1/42,9/30/94,52
529,OTTAGRCO,9055000,"OTTER CREEK ABOVE GREEN MOUNTAIN RESERVOIR, CO.",USGS,5,36,SUMMIT,CO,391546.8,4412184.5,39.852765,-106.267814,User supplied,10/1/44,9/30/53,6/17/15,http://cdss.state.co.us/onlineTools/Pages/ClimateStation.aspx,cfs,3286,10/1/44,9/30/53,8
530,,9060700,"EGERIA CREEK NEAR TOPONAS, CO.",USGS,5,53,ROUTT,CO,340839.8,4434942.2,40.049712,-106.865887,User supplied,10/1/65,9/30/73,6/17/15,http://cdss.state.co.us/onlineTools/Pages/ClimateStation.aspx,cfs,2921,10/1/65,9/30/73,7
531,,9060950,"BIG ALKALI CREEK BELOW CASTLE CR NEAR BURNS, CO.",USGS,5,52,EAGLE,CO,344544.1,4414291.2,39.864435,-106.817553,User supplied,10/1/81,9/30/86,6/17/15,http://cdss.state.co.us/onlineTools/Pages/ClimateStation.aspx,cfs,1825,10/1/81,9/30/86,4
532,,9063500,"TURKEY CREEK AT RED CLIFF, CO.",USGS,5,37,EAGLE,CO,382466.4,4374696.7,39.513884,-106.367265,User supplied,10/1/13,9/30/56,6/17/15,http://cdss.state.co.us/onlineTools/Pages/ClimateStation.aspx,cfs,15705,10/1/13,9/30/56,#NUM!
533,,9063900,"MISSOURI CREEK NEAR GOLD PARK, CO.",USGS,5,37,EAGLE,CO,373407.1,4361116.8,39.390272,-106.470041,User supplied,8/1/72,10/18/20,10/19/20,http://cdss.state.co.us/onlineTools/Pages/ClimateStation.aspx,cfs,17610,8/1/72,10/18/20,48
534,,9064500,"HOMESTAKE CREEK NEAR RED CLIFF, CO.",USGS,5,37,EAGLE,CO,382350.2,4370196.3,39.473323,-106.367819,User supplied,10/1/10,9/30/11,6/20/16,http://cdss.state.co.us/onlineTools/Pages/ClimateStation.aspx,cfs,36889,10/1/10,9/30/11,0
535,BOOMINCO,9066200,"BOOTH CREEK NEAR MINTURN, CO.",USGS,5,37,EAGLE,CO,386482.8,4389561.6,39.648319,-106.323083,User supplied,10/1/64,10/19/20,10/20/20,http://cdss.state.co.us/onlineTools/Pages/ClimateStation.aspx,cfs,20472,10/1/64,10/19/20,56
536,,9066310,"GORE CREEK, LOWER STATION, AT VAIL, COLORADO",USGS,5,37,EAGLE,CO,380368.9,4388852.4,39.6411,-106.394205,User supplied,9/1/88,9/30/99,6/17/15,http://cdss.state.co.us/onlineTools/Pages/ClimateStation.aspx,cfs,4046,9/1/88,9/30/99,11
538,LINGRRCO,9073005,"LINCOLN CREEK BELOW GRIZZLY RESERVOIR NR ASPEN, CO",USGS,5,38,PITKIN,CO,360171.6,4326924.2,39.080236,-106.616583,User supplied,10/1/80,10/19/20,10/20/20,http://cdss.state.co.us/onlineTools/Pages/ClimateStation.aspx,cfs,14628,10/1/80,10/19/20,40
539,,9073720,"HUNTER CREEK FEEDER CONDUIT NEAR ASPEN, CO",USGS,5,38,PITKIN,CO,355023.7,4341145.3,39.207492,-106.679124,User supplied,6/1/80,8/24/20,9/16/20,http://cdss.state.co.us/onlineTools/Pages/ClimateStation.aspx,cfs,14694,6/1/80,8/24/20,40
540,HUNTASCO,9074000,"HUNTER CREEK NEAR ASPEN, CO",USGS,5,38,PITKIN,CO,344794.8,4341156.2,39.20582,-106.797538,User supplied,6/1/50,9/30/16,8/15/19,http://cdss.state.co.us/onlineTools/Pages/ClimateStation.aspx,cfs,24228,6/1/50,9/30/16,66
541,MARNASCO,9076000,"MAROON CREEK NEAR ASPEN, CO.",USGS,5,38,PITKIN,CO,337512,4336595,39.163415,-106.880759,User supplied,1/1/11,10/19/20,10/19/20,http://cdss.state.co.us/onlineTools/Pages/ClimateStation.aspx,cfs,40104,1/1/11,10/19/20,9
542,FRYANOCO,9078000,"FRYINGPAN RIVER AT NORRIE, CO.",USGS,5,38,PITKIN,CO,357090,4354799.8,39.330827,-106.658102,User supplied,10/1/10,9/30/83,6/17/15,http://cdss.state.co.us/onlineTools/Pages/ClimateStation.aspx,cfs,26662,10/1/10,9/30/83,#NUM!
543,CUNNORCO,9078200,"CUNNINGHAM CREEK NEAR NORRIE, CO.",USGS,5,38,PITKIN,CO,364231.6,4355042.2,39.334158,-106.575317,User supplied,10/1/63,9/30/80,6/17/15,http://cdss.state.co.us/onlineTools/Pages/ClimateStation.aspx,cfs,6209,10/1/63,9/30/80,16
544,CRYMARCO,9081500,"CRYSTAL RIVER AT MARBLE, CO.",USGS,5,38,GUNNISON,CO,310485.3,4326673.1,39.068604,-107.19062,User supplied,11/1/10,9/30/17,6/17/15,http://cdss.state.co.us/onlineTools/Pages/ClimateStation.aspx,cfs,2525,11/1/10,9/30/17,6
545,,9085300,"EAST CANYON CREEK NEAR NEW CASTLE, CO.",USGS,5,39,GARFIELD,CO,290976.1,4387210.3,39.609151,-107.43479,User supplied,3/1/69,9/30/83,6/17/15,http://cdss.state.co.us/onlineTools/Pages/ClimateStation.aspx,cfs,5326,3/1/69,9/30/83,14
546,,9087600,"COLORADO RIVER AT NEW CASTLE, CO.",USGS,5,45,GARFIELD,CO,281425.2,4382877,39.567763,-107.544514,User supplied,7/1/66,9/30/72,6/17/15,http://cdss.state.co.us/onlineTools/Pages/ClimateStation.aspx,cfs,2283,7/1/66,9/30/72,6
547,BENGORCO,9092980,"BEN GOOD CREEK NEAR RULLISON, CO.",USGS,5,39,GARFIELD,CO,238836.9,4386700.5,39.590256,-108.041197,User supplied,12/1/76,9/30/83,6/17/15,http://cdss.state.co.us/onlineTools/Pages/ClimateStation.aspx,cfs,2494,12/1/76,9/30/83,6
548,,9095000,"ROAN CREEK NEAR DE BEQUE, CO.",USGS,5,70,GARFIELD,CO,214583.2,4372336.1,39.453316,-108.317045,User supplied,4/1/21,9/30/81,6/17/15,http://cdss.state.co.us/onlineTools/Pages/ClimateStation.aspx,cfs,22097,4/1/21,9/30/81,#NUM!
549,COLCAMCO,9095500,"COLORADO RIVER NEAR CAMEO, CO.",USGS,5,72,MESA,CO,218098.1,4348401,39.239146,-108.266195,User supplied,10/1/33,10/19/20,10/19/20,http://cdss.state.co.us/onlineTools/Pages/ClimateStation.aspx,cfs,31795,10/1/33,10/19/20,87
550,GOVLOMCO,9095526,"GOVERNMENT HIGHLINE CA AT 16 ROAD, NR LOMA, CO.",USGS,5,72,MESA,CO,175828,4352018.8,39.256931,-108.756778,User supplied,10/1/75,12/31/85,6/17/15,http://cdss.state.co.us/onlineTools/Pages/ClimateStation.aspx,cfs,3744,10/1/75,12/31/85,10
551,,9095528,"LATERAL NO. 48 NEAR MACK, CO.",USGS,5,72,MESA,CO,169254.2,4353901.3,39.271371,-108.833728,User supplied,4/1/73,9/30/81,6/17/15,http://cdss.state.co.us/onlineTools/Pages/ClimateStation.aspx,cfs,3104,4/1/73,9/30/81,8
552,GOVCAMCO,90955285,"GOV'T HIGHLINE CA AB CAMP #7 SPILL, NR MACK, CO.",USGS,5,72,MESA,CO,169331.4,4354021.6,39.272488,-108.832897,User supplied,10/1/83,12/31/85,6/17/15,http://cdss.state.co.us/onlineTools/Pages/ClimateStation.aspx,cfs,822,10/1/83,12/31/85,2
553,BUZOWECO,9096800,"BUZZARD CREEK BL OWENS CREEK, NR HEIBERGER, CO.",USGS,5,72,MESA,CO,272665.7,4346282.9,39.236099,-107.633953,User supplied,10/1/55,9/30/70,6/17/15,http://cdss.state.co.us/onlineTools/Pages/ClimateStation.aspx,cfs,5478,10/1/55,9/30/70,14
554,BRUCOLCO,9097600,"BRUSH CREEK NEAR COLLBRAN, CO",USGS,5,72,MESA,CO,254991.2,4356693.7,39.324987,-107.8423,User supplied,10/1/55,9/30/67,6/17/15,http://cdss.state.co.us/onlineTools/Pages/ClimateStation.aspx,cfs,4382,10/1/55,9/30/67,11
555,EAFBIGCO,9099000,"EAST FORK BIG CREEK NEAR COLLBRAN, CO.",USGS,5,72,MESA,CO,249627.7,4332912.3,39.109427,-107.895629,User supplied,10/1/50,9/30/55,6/17/15,http://cdss.state.co.us/onlineTools/Pages/ClimateStation.aspx,cfs,1825,10/1/50,9/30/55,4
556,COTMOLCO,9101000,"COTTONWOOD CREEK NEAR MOLINA, CO.",USGS,5,72,MESA,CO,239211.3,4339332.8,39.164154,-108.01842,User supplied,5/1/37,9/30/43,6/17/15,http://cdss.state.co.us/onlineTools/Pages/ClimateStation.aspx,cfs,2343,5/1/37,9/30/43,6
557,COOAUPCO,9104000,"COON CREEK NEAR MESA, CO.",USGS,5,72,MESA,CO,229052.4,4333287.2,39.106651,-108.133426,User supplied,5/1/37,9/30/43,6/17/15,http://cdss.state.co.us/onlineTools/Pages/ClimateStation.aspx,cfs,2343,5/1/37,9/30/43,6
558,MESAMECO,9104500,"MESA CREEK NEAR MESA, CO.",USGS,5,72,MESA,CO,229551.5,4331016.3,39.086372,-108.126748,User supplied,10/1/40,9/30/60,6/17/15,http://cdss.state.co.us/onlineTools/Pages/ClimateStation.aspx,cfs,7304,10/1/40,9/30/60,19
559,KIEXTECO,9106104,"KIEFER EXTENSION GRAND VALLEY CA NR FRUITA, CO.",USGS,5,72,MESA,CO,174098.7,4348569,39.225263,-108.775109,User supplied,10/1/75,12/31/85,6/17/15,http://cdss.state.co.us/onlineTools/Pages/ClimateStation.aspx,cfs,3744,10/1/75,12/31/85,10
560,COLPALCO,9106150,"COLO RIVER BELOW GRAND VALLEY DIV NR PALISADE, CO",USGS,5,72,MESA,CO,209846.5,4333078.5,39.098592,-108.355086,User supplied,10/1/90,10/19/20,10/20/20,http://cdss.state.co.us/onlineTools/Pages/ClimateStation.aspx,cfs,10976,10/1/90,10/19/20,30
582,REELOMCO,9153300,"REED WASH NEAR LOMA, CO.",USGS,5,72,MESA,CO,172849.6,4343987.2,39.183596,-108.787331,User supplied,4/1/73,9/30/83,6/17/15,http://cdss.state.co.us/onlineTools/Pages/ClimateStation.aspx,cfs,3834,4/1/73,9/30/83,10
674,COLPLUCO,9010501,COLO R BL BAKER GUL PLUS GRAND R D COLO,USGS,5,51,GRAND,CO,427222.4,4464272.9,40.325825,-105.856694,User supplied,10/1/53,9/30/67,6/17/15,http://cdss.state.co.us/onlineTools/Pages/ClimateStation.aspx,cfs,5112,10/1/53,9/30/67,13
675,COLSHACO,9015000,"COLORADO RIVER BL SHADOW MOUNTAIN RESERVOIR, CO.",USGS,5,51,GRAND,CO,428720,4450868,40.205196,-105.837572,User supplied,10/1/47,10/18/20,10/19/20,http://cdss.state.co.us/onlineTools/Pages/ClimateStation.aspx,cfs,26681,10/1/47,10/18/20,73
676,ARAMONCO,9016500,"ARAPAHO CREEK AT MONARCH LAKE OUTLET, CO.",USGS,5,51,GRAND,CO,436108,4440511.5,40.112497,-105.749741,User supplied,10/1/44,9/30/71,6/17/15,http://cdss.state.co.us/onlineTools/Pages/ClimateStation.aspx,cfs,9860,10/1/44,9/30/71,26
677,WILAWICO,9020500,"WILLOW CREEK ABOVE WILLOW CREEK RESERVOIR, CO.",USGS,5,51,GRAND,CO,416488.1,4445481.8,40.155549,-105.980585,User supplied,10/1/53,9/30/60,6/17/15,http://cdss.state.co.us/onlineTools/Pages/ClimateStation.aspx,cfs,2556,10/1/53,9/30/60,6
678,FRABWICO,9023500,"FRASER RIVER ABOVE WINTER PARK, CO.",USGS,5,51,GRAND,CO,435345.3,4414772.3,39.880546,-105.756132,User supplied,8/1/34,9/30/37,6/17/15,http://cdss.state.co.us/onlineTools/Pages/ClimateStation.aspx,cfs,1156,8/1/34,9/30/37,3
679,STRANGCO,9033500,"STRAWBERRY CREEK NEAR GRANBY, CO",USGS,5,51,GRAND,CO,429441.8,4437698.4,40.086613,-105.827648,User supplied,10/1/36,9/30/45,6/17/15,http://cdss.state.co.us/onlineTools/Pages/ClimateStation.aspx,cfs,3286,10/1/36,9/30/45,8
680,COLSULCO,WS1853,"COLORADO RIVER AT HOT SULPHUR SPRINGS, CO.",NCWCD,5,51,GRAND,CO,407234.4,4437572.3,40.083321,-106.088074,User supplied,5/10/01,10/19/20,10/20/20,http://cdss.state.co.us/onlineTools/Pages/ClimateStation.aspx,cfs,7102,5/10/01,10/19/20,19
681,WILDARCO,9035700,"WILLIAMS FORK ABOVE DARLING CREEK, NEAR LEAL, CO",USGS,5,51,GRAND,CO,412192.4,4405751.2,39.797194,-106.025639,User supplied,10/1/65,10/19/20,10/20/20,http://cdss.state.co.us/onlineTools/Pages/ClimateStation.aspx,cfs,20107,10/1/65,10/19/20,55
682,TROPEACO,9039000,"TROUBLESOME CREEK NEAR PEARMONT, CO.",USGS,5,50,GRAND,CO,388270.2,4452723,40.21749,-106.313098,User supplied,10/1/53,9/30/93,6/17/15,http://cdss.state.co.us/onlineTools/Pages/ClimateStation.aspx,cfs,14609,10/1/53,9/30/93,39
683,REDIRKCO,9041200,"RED DIRT CREEK NEAR KREMMLING, CO.",USGS,5,50,GRAND,CO,367194.1,4446834.2,40.161378,-106.559495,User supplied,10/1/55,9/30/74,6/17/15,http://cdss.state.co.us/onlineTools/Pages/ClimateStation.aspx,cfs,6939,10/1/55,9/30/74,18
684,MONTCRCO,9043000,"MONTE CRISTO CREEK NEAR HOOSIER PASS, CO.",USGS,5,36,SUMMIT,CO,408442,4359669.5,39.381665,-106.063086,User supplied,10/1/53,9/30/58,6/17/15,http://cdss.state.co.us/onlineTools/Pages/ClimateStation.aspx,cfs,1825,10/1/53,9/30/58,4
685,SNADILCO,9048000,"SNAKE RIVER AT DILLON, CO.",USGS,5,36,SUMMIT,CO,410532.8,4385267.3,39.61249,-106.042249,User supplied,10/1/10,4/30/64,6/17/15,http://cdss.state.co.us/onlineTools/Pages/ClimateStation.aspx,cfs,19570,10/1/10,4/30/64,#NUM!
686,STRANDCO,9051000,"STRAIGHT CREEK NEAR DILLON, CO.",USGS,5,36,SUMMIT,CO,412486,4389253.3,39.648602,-106.020029,User supplied,10/1/43,9/30/52,6/17/15,http://cdss.state.co.us/onlineTools/Pages/ClimateStation.aspx,cfs,3287,10/1/43,9/30/52,8
687,COLKRECO,9058000,"COLORADO RIVER NEAR KREMMLING, CO",USGS,5,53,GRAND,CO,377142.7,4432818.5,40.036652,-106.440032,User supplied,8/1/04,10/19/20,10/20/20,http://cdss.state.co.us/onlineTools/Pages/ClimateStation.aspx,cfs,42448,8/1/04,10/19/20,16
689,,9063200,"WEARYMAN CREEK NEAR RED CLIFF, CO.",USGS,5,37,EAGLE,CO,386229.1,4375565.5,39.522218,-106.323651,User supplied,10/1/64,9/30/08,6/17/15,http://cdss.state.co.us/onlineTools/Pages/ClimateStation.aspx,cfs,16070,10/1/64,9/30/08,43
690,,9066000,"BLACK GORE CREEK NEAR MINTURN, CO.",USGS,5,37,EAGLE,CO,391383,4383724.6,39.596384,-106.265036,User supplied,10/1/47,10/18/20,10/19/20,http://cdss.state.co.us/onlineTools/Pages/ClimateStation.aspx,cfs,26681,10/1/47,10/18/20,73
691,REDSANCO,9066400,"RED SANDSTONE CREEK NEAR MINTURN, CO.",USGS,5,37,EAGLE,CO,379821.4,4393486.6,39.682764,-106.401418,User supplied,10/1/63,9/30/08,6/17/15,http://cdss.state.co.us/onlineTools/Pages/ClimateStation.aspx,cfs,16436,10/1/63,9/30/08,44
692,,9067700,"EAST BRUSH CREEK AT YEOMAN PARK, NEAR EAGLE, CO.",USGS,5,37,EAGLE,CO,355723.9,4374069.5,39.504162,-106.678102,User supplied,10/1/65,9/30/72,6/17/15,http://cdss.state.co.us/onlineTools/Pages/ClimateStation.aspx,cfs,2556,10/1/65,9/30/72,6
693,GRANORCO,9077300,"GRANITE CREEK FEEDER CONDUIT NEAR NORRIE,CO.",USGS,5,38,PITKIN,CO,366047.1,4347794.6,39.269163,-106.552821,User supplied,6/1/81,9/30/83,6/17/15,http://cdss.state.co.us/onlineTools/Pages/ClimateStation.aspx,cfs,851,6/1/81,9/30/83,2
694,IVANORCO,9077600,"IVANHOE CREEK NEAR NORRIE, CO.",USGS,5,38,PITKIN,CO,366061.2,4350014.7,39.289162,-106.553101,User supplied,10/1/63,9/30/76,6/17/15,http://cdss.state.co.us/onlineTools/Pages/ClimateStation.aspx,cfs,4748,10/1/63,9/30/76,12
695,LIMTHOCO,9079500,"LIME CREEK AT THOMASVILLE, CO.",USGS,5,38,PITKIN,CO,354098.4,4357476.6,39.354439,-106.693384,User supplied,6/1/50,9/30/56,6/17/15,http://cdss.state.co.us/onlineTools/Pages/ClimateStation.aspx,cfs,2313,6/1/50,9/30/56,6
696,,9085500,"CANYON CREEK NEAR NEW CASTLE, CO.",USGS,5,39,GARFIELD,CO,289774.1,4383385.9,39.574432,-107.447567,User supplied,10/1/54,9/30/60,6/17/15,http://cdss.state.co.us/onlineTools/Pages/ClimateStation.aspx,cfs,2191,10/1/54,9/30/60,5
697,EPARULCO,9092970,"EAST FORK PARACHUTE CREEK NEAR RULISON, CO.",USGS,5,39,GARFIELD,CO,240469.8,4384113.9,39.567483,-108.021195,User supplied,12/1/76,9/30/83,6/17/15,http://cdss.state.co.us/onlineTools/Pages/ClimateStation.aspx,cfs,2494,12/1/76,9/30/83,6
698,,9094400,"CLEAR CREEK NEAR DE BEQUE, CO.",USGS,5,70,GARFIELD,CO,213869.5,4375697.5,39.483322,-108.326759,User supplied,7/1/66,9/30/68,6/17/15,http://cdss.state.co.us/onlineTools/Pages/ClimateStation.aspx,cfs,822,7/1/66,9/30/68,2
699,PLACOLCO,9096500,"PLATEAU CREEK NEAR COLLBRAN, CO.",USGS,5,72,MESA,CO,254875.3,4348425.6,39.250544,-107.840634,User supplied,10/1/21,9/30/80,6/17/15,http://cdss.state.co.us/onlineTools/Pages/ClimateStation.aspx,cfs,21549,10/1/21,9/30/80,#NUM!
700,,9106200,"LEWIS WASH NEAR GRAND JUNCTION, CO.",USGS,5,72,MESA,CO,199063.6,4329253.7,39.060545,-108.477875,User supplied,4/1/73,3/31/04,6/17/15,http://cdss.state.co.us/onlineTools/Pages/ClimateStation.aspx,cfs,11322,4/1/73,3/31/04,30
713,BADONNCO,9161000,"BADGER WASH OBSERVATION RES 2-A NEAR MACK, CO.",USGS,5,72,MESA,CO,160090.2,4360753.5,39.329433,-108.943178,User supplied,5/1/76,9/30/82,6/17/15,http://cdss.state.co.us/onlineTools/Pages/ClimateStation.aspx,cfs,2343,5/1/76,9/30/82,6
714,EASALCCO,9163310,"EAST SALT CREEK NEAR MACK, CO.",USGS,5,72,MESA,CO,166524.2,4356891,39.297207,-108.866785,User supplied,7/1/73,9/30/82,6/17/15,http://cdss.state.co.us/onlineTools/Pages/ClimateStation.aspx,cfs,3378,7/1/73,9/30/82,9
784,JIMGRACO,9010400,"JIMMY CREEK NEAR GRAND LAKE, CO.",USGS,5,51,GRAND,CO,425247.7,4469811.9,40.375547,-105.880577,User supplied,6/1/69,9/30/75,6/17/15,http://cdss.state.co.us/onlineTools/Pages/ClimateStation.aspx,cfs,2312,6/1/69,9/30/75,6
785,HARGRACO,9012410,"HARBISON DITCH NEAR GRAND LAKE, COLO.",USGS,5,51,GRAND,CO,430254.8,4457861.3,40.268322,-105.820297,User supplied,5/1/69,9/30/69,6/17/15,http://cdss.state.co.us/onlineTools/Pages/ClimateStation.aspx,cfs,152,5/1/69,9/30/69,0
786,COLGBYCO,9019000,"COLORADO RIVER BELOW LAKE GRANBY, CO.",USGS,5,51,GRAND,CO,426128.6,4444160,40.144543,-105.867244,User supplied,10/1/50,10/19/20,10/20/20,http://cdss.state.co.us/onlineTools/Pages/ClimateStation.aspx,cfs,25586,10/1/50,10/19/20,70
787,ELKFRACO,9025400,"ELK CREEK NEAR FRASER, CO.",USGS,5,51,GRAND,CO,429422.7,4419110.4,39.919155,-105.825851,User supplied,10/1/70,9/30/96,6/17/15,http://cdss.state.co.us/onlineTools/Pages/ClimateStation.aspx,cfs,9496,10/1/70,9/30/96,25
788,MEATABCO,9033000,"MEADOW CREEK NEAR TABERNASH, CO.",USGS,5,51,GRAND,CO,433681,4433687.3,40.050824,-105.777519,User supplied,10/1/37,9/30/56,6/17/15,http://cdss.state.co.us/onlineTools/Pages/ClimateStation.aspx,cfs,6939,10/1/37,9/30/56,18
789,FRAGRACO,WS1859,"FRASER RIVER AT GRANBY, CO.",NCWCD,5,51,GRAND,CO,418557.4,4437657.8,40.085262,-105.955292,User supplied,7/1/03,10/19/20,10/20/20,http://cdss.state.co.us/onlineTools/Pages/ClimateStation.aspx,cfs,6320,7/1/03,10/19/20,17
790,SOFWHOCO,9035870,"SO FK WILLIAMS FK BL SHORT CR NR PTARMIGAN PAS,",USGS,5,51,GRAND,CO,411589.6,4400425.3,39.749156,-106.031968,User supplied,10/1/84,9/30/87,6/17/15,http://cdss.state.co.us/onlineTools/Pages/ClimateStation.aspx,cfs,1094,10/1/84,9/30/87,2
791,WILSCHCO,9037000,"WILLIAMS FORK NEAR SCHOLL, CO.",USGS,5,51,GRAND,CO,406019.3,4417821,39.90527,-106.09948,User supplied,10/1/10,5/31/17,6/17/15,http://cdss.state.co.us/onlineTools/Pages/ClimateStation.aspx,cfs,2434,10/1/10,5/31/17,6
792,TROATRCO,9039500,"TROUBLESOME C AT ATMORE RANCH, NR TRBLESOME, CO.",USGS,5,50,GRAND,CO,388538.8,4451701.4,40.208321,-106.30976,User supplied,4/1/37,9/30/43,6/17/15,http://cdss.state.co.us/onlineTools/Pages/ClimateStation.aspx,cfs,2373,4/1/37,9/30/43,6
793,EFTRONCO,9040000,"EAST FORK TROUBLESOME C NEAR TROUBLESOME, CO.",USGS,5,50,GRAND,CO,390703.1,4446026.2,40.157489,-106.283374,User supplied,4/1/37,9/30/83,6/17/15,http://cdss.state.co.us/onlineTools/Pages/ClimateStation.aspx,cfs,16983,4/1/37,9/30/83,46
794,HOONHOCO,9044000,"HOOSIER CREEK NEAR HOOSIER PASS, CO.",USGS,5,36,SUMMIT,CO,409172.5,4358705.2,39.373048,-106.05448,User supplied,10/1/53,6/30/58,6/17/15,http://cdss.state.co.us/onlineTools/Pages/ClimateStation.aspx,cfs,1733,10/1/53,6/30/58,4
795,TENCAFCO,9050000,"TENMILE CREEK AT FRISCO, CO.",USGS,5,36,SUMMIT,CO,404615.6,4381206.3,39.575267,-106.110583,User supplied,10/1/42,9/30/50,6/17/15,http://cdss.state.co.us/onlineTools/Pages/ClimateStation.aspx,cfs,2921,10/1/42,9/30/50,7
796,TENDILCO,9050500,"TENMILE CREEK AT DILLON, CO.",USGS,5,36,SUMMIT,CO,409459.7,4385279.8,39.612494,-106.054749,User supplied,10/1/10,4/30/61,6/17/15,http://cdss.state.co.us/onlineTools/Pages/ClimateStation.aspx,cfs,18474,10/1/10,4/30/61,#NUM!
797,SLAUPPCO,9052800,"SLATE CREEK AT UPPER STATION, NEAR DILLON, CO.",USGS,5,36,SUMMIT,CO,397854.1,4402137.5,39.763051,-106.192536,User supplied,10/1/66,9/30/94,6/17/15,http://cdss.state.co.us/onlineTools/Pages/ClimateStation.aspx,cfs,10226,10/1/66,9/30/94,27
798,BLUKRECO,9056000,"BLUE RIVER NEAR KREMMLING, CO.",USGS,5,36,SUMMIT,CO,389605.6,4414371,39.872214,-106.290868,User supplied,8/1/04,11/30/08,6/17/15,http://cdss.state.co.us/onlineTools/Pages/ClimateStation.aspx,cfs,1582,8/1/04,11/30/08,4
799,PINEPICO,9058500,"PINEY RIVER BELOW PINEY LAKE, NEAR MINTURN, CO.",USGS,5,52,EAGLE,CO,377698.1,4396326.4,39.708044,-106.426709,User supplied,10/1/47,9/30/20,10/16/20,http://cdss.state.co.us/onlineTools/Pages/ClimateStation.aspx,cfs,26663,10/1/47,9/30/20,72
800,,9061000,"SUNNYSIDE CREEK NEAR BURNS, CO.",USGS,5,53,ROUTT,CO,333921,4425342.3,39.961934,-106.944502,User supplied,10/1/52,9/30/58,6/17/15,http://cdss.state.co.us/onlineTools/Pages/ClimateStation.aspx,cfs,2190,10/1/52,9/30/58,5
801,CROMINCO,9065100,"CROSS CREEK NEAR MINTURN, CO",USGS,5,37,EAGLE,CO,378677.1,4380796.3,39.568292,-106.412431,User supplied,10/1/56,10/19/20,10/20/20,http://cdss.state.co.us/onlineTools/Pages/ClimateStation.aspx,cfs,23394,10/1/56,10/19/20,64
802,,9066150,"PITKIN CREEK NEAR MINTURN, CO.",USGS,5,37,EAGLE,CO,388238.9,4389011.7,39.643605,-106.302537,User supplied,10/1/66,9/30/08,6/17/15,http://cdss.state.co.us/onlineTools/Pages/ClimateStation.aspx,cfs,15340,10/1/66,9/30/08,41
803,,9066250,"GORE CREEK AT VAIL, CO.",USGS,5,37,EAGLE,CO,384495.8,4389005.3,39.643045,-106.346148,User supplied,10/1/73,9/30/79,6/17/15,http://cdss.state.co.us/onlineTools/Pages/ClimateStation.aspx,cfs,2190,10/1/73,9/30/79,5
804,,9067300,"ALKALI CREEK NEAR WOLCOTT, CO.",USGS,5,37,EAGLE,CO,356889,4402021.5,39.756108,-106.670602,User supplied,10/1/58,9/30/65,6/17/15,http://cdss.state.co.us/onlineTools/Pages/ClimateStation.aspx,cfs,2556,10/1/58,9/30/65,6
805,COLDOTCO,9070500,"COLORADO RIVER NEAR DOTSERO, CO",USGS,5,53,EAGLE,CO,321697.8,4390377.1,39.64461,-107.078015,GPS,12/1/40,10/19/20,10/20/20,http://cdss.state.co.us/onlineTools/Pages/ClimateStation.aspx,cfs,29177,12/1/40,10/19/20,79
806,,9073700,"HUNTER CREEK ABOVE MIDWAY CREEK, NEAR ASPEN, CO.",USGS,5,38,PITKIN,CO,357044.2,4341817.3,39.21388,-106.65588,User supplied,10/1/64,9/30/80,6/17/15,http://cdss.state.co.us/onlineTools/Pages/ClimateStation.aspx,cfs,5843,10/1/64,9/30/80,15
807,MARASPCO,9075700,"MAROON CREEK ABOVE ASPEN, CO.",USGS,5,38,PITKIN,CO,335296.1,4332221,39.123605,-106.905332,User supplied,9/1/69,9/30/94,6/17/15,http://cdss.state.co.us/onlineTools/Pages/ClimateStation.aspx,cfs,9160,9/1/69,9/30/94,25
808,OWLCASCO,9076520,"OWL CREEK NEAR ASPEN, CO.",USGS,5,38,PITKIN,CO,337735.6,4343273.3,39.2236,-106.87977,User supplied,10/1/74,9/30/89,6/17/15,http://cdss.state.co.us/onlineTools/Pages/ClimateStation.aspx,cfs,5478,10/1/74,9/30/89,14
809,CHAGFOCO,9077940,"CHAPMAN GULCH FEEDER CANAL NEAR NORRIE, CO.",USGS,5,38,PITKIN,CO,359363.5,4345383.3,39.246379,-106.62976,User supplied,10/1/71,9/30/83,6/17/15,http://cdss.state.co.us/onlineTools/Pages/ClimateStation.aspx,cfs,4382,10/1/71,9/30/83,11
810,NOFRYBCO,9078300,"NF FRYINGPAN R BL CUNNINGHAM C, NR NORRIE, CO.",USGS,5,38,PITKIN,CO,361090,4356146.1,39.343603,-106.611988,User supplied,10/1/63,9/30/68,6/17/15,http://cdss.state.co.us/onlineTools/Pages/ClimateStation.aspx,cfs,1826,10/1/63,9/30/68,4
811,FRYNFNCO,9078500,"NORTH FORK FRYINGPAN RIVER NEAR NORRIE, CO.",DWR,5,38,PITKIN,CO,356443.8,4356138,39.342766,-106.665871,User supplied,10/1/10,10/19/20,10/19/20,http://cdss.state.co.us/onlineTools/Pages/ClimateStation.aspx,cfs,40196,10/1/10,10/19/20,10
812,TOMCRECO,9083000,"THOMPSON CREEK NEAR CARBONDALE, CO.",DWR,5,38,PITKIN,CO,308266.9,4355817.6,39.330549,-107.224505,,10/1/50,5/14/02,6/17/15,http://cdss.state.co.us/onlineTools/Pages/ClimateStation.aspx,cfs,18853,10/1/50,5/14/02,51
813,WSDRAVCO,9089500,"WEST DIVIDE CREEK NEAR RAVEN, CO",DWR,5,45,MESA,CO,277609,4356692,39.331079,-107.580175,User supplied,10/1/55,10/19/20,10/20/20,http://cdss.state.co.us/onlineTools/Pages/ClimateStation.aspx,cfs,23760,10/1/55,10/19/20,65
814,,9094200,"ROAN CREEK ABOVE CLEAR CREEK, NEAR DE BEQUE, CO.",USGS,5,70,GARFIELD,CO,211464.1,4376651.3,39.491091,-108.355101,User supplied,10/1/62,9/30/68,6/17/15,http://cdss.state.co.us/onlineTools/Pages/ClimateStation.aspx,cfs,2191,10/1/62,9/30/68,5
815,BIGCOLCO,9100000,"BIG CREEK NEAR COLLBRAN, CO.",USGS,5,72,MESA,CO,244268.3,4342592.2,39.194982,-107.961194,User supplied,5/1/37,6/30/44,6/17/15,http://cdss.state.co.us/onlineTools/Pages/ClimateStation.aspx,cfs,2617,5/1/37,6/30/44,7
829,BADOBSCO,9160000,"BADGER WASH OBSERVATION RES 4-A NEAR MACK, CO.",USGS,5,72,MESA,CO,161152.3,4360892.6,39.331099,-108.930955,User supplied,5/1/76,9/30/82,6/17/15,http://cdss.state.co.us/onlineTools/Pages/ClimateStation.aspx,cfs,2343,5/1/76,9/30/82,6
830,BADWAMCO,9163050,"BADGER WASH NEAR MACK, CO.",USGS,5,72,MESA,CO,160730,4356708.7,39.293322,-108.93373,User supplied,4/1/73,9/30/82,6/17/15,http://cdss.state.co.us/onlineTools/Pages/ClimateStation.aspx,cfs,3469,4/1/73,9/30/82,9
892,GRAOUTCO,9014000,"GRAND LAKE OUTLET AT GRAND LAKE, CO.",USGS,5,51,GRAND,CO,429710.7,4455245.3,40.24471,-105.826408,User supplied,10/1/04,9/30/13,6/17/15,http://cdss.state.co.us/onlineTools/Pages/ClimateStation.aspx,cfs,3286,10/1/04,9/30/13,8
893,STILAGCO,9018000,"STILLWATER CREEK AB LK GRANBY, NR GRAND LK, CO.",USGS,5,51,GRAND,CO,423811.3,4449012.2,40.188045,-105.895028,User supplied,10/1/50,9/30/55,6/17/15,http://cdss.state.co.us/onlineTools/Pages/ClimateStation.aspx,cfs,1825,10/1/50,9/30/55,4
894,COLAWICO,9034250,"COLORADO RIVER AT WINDY GAP, NEAR GRANBY, CO.",USGS,5,51,GRAND,CO,414417.9,4440262.8,40.108319,-106.004185,User supplied,10/1/81,10/19/20,10/20/20,http://cdss.state.co.us/onlineTools/Pages/ClimateStation.aspx,cfs,14263,10/1/81,10/19/20,39
895,SOFWOLCO,9035880,"S. FK. WILLIAMS FORK BLW OLD BALDY MT NR LEAL, CO",USGS,5,51,GRAND,CO,411245.1,4401508.5,39.758876,-106.036141,User supplied,10/1/85,9/30/88,6/17/15,http://cdss.state.co.us/onlineTools/Pages/ClimateStation.aspx,cfs,1095,10/1/85,9/30/88,2
896,WILFORCO,9038500,"WILLIAMS FORK BELOW WILLIAMS FORK RESERVOIR, CO",USGS,5,51,GRAND,CO,397192.9,4432440.3,40.035928,-106.205014,User supplied,10/1/48,10/19/20,10/20/20,http://cdss.state.co.us/onlineTools/Pages/ClimateStation.aspx,cfs,26316,10/1/48,10/19/20,72
897,MONTDOCO,9041900,"MONTE CRISTO DIVERSION NEAR HOOSIER PASS, CO",USGS,5,36,SUMMIT,CO,407723.2,4359585.6,39.380822,-106.071408,User supplied,10/1/57,10/19/20,10/20/20,http://cdss.state.co.us/onlineTools/Pages/ClimateStation.aspx,cfs,23029,10/1/57,10/19/20,63
898,MCCDIVCO,9044800,"MCCULLOUGH-SP-CRYS-DIVERSION NEAR HOOSIER PASS, CO",USGS,5,36,SUMMIT,CO,407747.1,4359585.3,39.380822,-106.07113,User supplied,10/1/54,10/19/20,10/20/20,http://cdss.state.co.us/onlineTools/Pages/ClimateStation.aspx,cfs,24125,10/1/54,10/19/20,66
899,SNAMONCO,9047500,"SNAKE RIVER NEAR MONTEZUMA, CO.",USGS,5,36,SUMMIT,CO,419032.4,4384382.4,39.605361,-105.943131,User supplied,10/1/42,10/19/20,10/20/20,http://cdss.state.co.us/onlineTools/Pages/ClimateStation.aspx,cfs,28508,10/1/42,10/19/20,78
900,,9060770,"ROCK CREEK AT MCCOY, CO.",USGS,5,53,EAGLE,CO,352511.3,4419438.5,39.91221,-106.725609,User supplied,10/1/83,9/30/97,6/17/15,http://cdss.state.co.us/onlineTools/Pages/ClimateStation.aspx,cfs,5113,10/1/83,9/30/97,13
903,,9073500,"ROARING FORK RIVER AT ASPEN, CO.",USGS,5,38,PITKIN,CO,343295.2,4339366.6,39.189442,-106.814496,User supplied,10/1/10,9/30/64,6/17/15,http://cdss.state.co.us/onlineTools/Pages/ClimateStation.aspx,cfs,19723,10/1/10,9/30/64,#NUM!
904,,9073800,"MIDWAY CREEK NEAR ASPEN, CO.",USGS,5,38,PITKIN,CO,354057.9,4339929.6,39.196387,-106.690045,User supplied,10/1/70,9/30/80,6/17/15,http://cdss.state.co.us/onlineTools/Pages/ClimateStation.aspx,cfs,3652,10/1/70,9/30/80,9
905,IVANASCO,9077605,"IVANHOE CREEK FEEDER CANAL NEAR NAST, CO.",USGS,5,38,PITKIN,CO,365530.5,4349808,39.287215,-106.559214,User supplied,10/1/75,9/30/83,6/17/15,http://cdss.state.co.us/onlineTools/Pages/ClimateStation.aspx,cfs,2921,10/1/75,9/30/83,7
906,IVCRNACO,9077610,"IVANHOE CREEK NEAR NAST, CO.",BOR,5,38,PITKIN,CO,365529.9,4349777.2,39.286932,-106.559198,User supplied,10/1/75,10/19/20,10/19/20,http://cdss.state.co.us/onlineTools/Pages/ClimateStation.aspx,cfs,16455,10/1/75,10/19/20,45
907,SOFRYNCO,9077750,"SF FRYINGPAN RIVER FEEDER CANAL NEAR NORRIE, CO.",USGS,5,38,PITKIN,CO,362776.9,4344490.1,39.238882,-106.590042,User supplied,10/1/71,9/30/83,6/17/15,http://cdss.state.co.us/onlineTools/Pages/ClimateStation.aspx,cfs,4382,10/1/71,9/30/83,11
908,SAWFENCO,9077960,"SAWYER CREEK FEEDER CANAL NEAR NORRIE, CO.",USGS,5,38,PITKIN,CO,359538.9,4347138,39.262215,-106.628099,User supplied,10/1/71,9/30/83,6/17/15,http://cdss.state.co.us/onlineTools/Pages/ClimateStation.aspx,cfs,4382,10/1/71,9/30/83,11
909,NOFRYACO,9078100,"NF FRYINGPAN R AB CUNNINGHAM C, NR NORRIE, CO.",USGS,5,38,PITKIN,CO,364877.8,4357775.6,39.358885,-106.568374,User supplied,10/1/63,9/30/80,6/17/15,http://cdss.state.co.us/onlineTools/Pages/ClimateStation.aspx,cfs,6209,10/1/63,9/30/80,16
910,LIMEATCO,9079000,"LIME CREEK AT TROUTVILLE, CO.",USGS,5,38,EAGLE,CO,358903,4364943.9,39.422493,-106.639211,User supplied,6/1/50,9/30/56,6/17/15,http://cdss.state.co.us/onlineTools/Pages/ClimateStation.aspx,cfs,2313,6/1/50,9/30/56,6
911,WESOPRCO,9080800,"WEST SOPRIS CREEK NEAR BASALT, CO.",USGS,5,38,PITKIN,CO,319392.3,4356199.4,39.336375,-107.095618,User supplied,10/1/63,9/30/68,6/17/15,http://cdss.state.co.us/onlineTools/Pages/ClimateStation.aspx,cfs,1826,10/1/63,9/30/68,4
912,CRYPLACO,9081550,"CRYSTAL RIVER AT PLACITA, CO.",USGS,5,38,PITKIN,CO,304873.8,4335047,39.142769,-107.257837,User supplied,10/1/59,9/30/77,6/17/15,http://cdss.state.co.us/onlineTools/Pages/ClimateStation.aspx,cfs,6574,10/1/59,9/30/77,17
913,ROAGLECO,9085000,"ROARING FORK RIVER AT GLENWOOD SPRINGS, CO.",USGS,5,38,GARFIELD,CO,299826.6,4379694,39.543593,-107.329498,User supplied,4/1/06,10/19/20,10/20/20,http://cdss.state.co.us/onlineTools/Pages/ClimateStation.aspx,cfs,41840,4/1/06,10/19/20,14
914,CANCASCO,9085200,"CANYON CREEK ABOVE NEW CASTLE, CO.",USGS,5,39,GARFIELD,CO,289795.7,4386810.4,39.605261,-107.448396,User supplied,3/1/69,9/30/86,6/17/15,http://cdss.state.co.us/onlineTools/Pages/ClimateStation.aspx,cfs,6422,3/1/69,9/30/86,17
915,,9089000,"WEST DIVIDE CREEK BL WILLOW CREEK, NR RAVEN, CO.",USGS,5,45,MESA,CO,282618.8,4350381.3,39.27554,-107.520064,User supplied,10/1/38,9/30/70,6/17/15,http://cdss.state.co.us/onlineTools/Pages/ClimateStation.aspx,cfs,11687,10/1/38,9/30/70,31
916,,9090700,"EAST DIVIDE CREEK NEAR SILT, CO.",USGS,5,45,GARFIELD,CO,278861.1,4368353.8,39.436378,-107.569513,User supplied,10/1/59,9/30/65,6/17/15,http://cdss.state.co.us/onlineTools/Pages/ClimateStation.aspx,cfs,2191,10/1/59,9/30/65,5
917,,9092600,"BATTLEMENT CREEK NEAR PARACHUTE, CO.",USGS,5,45,GARFIELD,CO,243756.3,4369341.1,39.435538,-107.977309,User supplied,10/1/56,9/30/65,6/17/15,http://cdss.state.co.us/onlineTools/Pages/ClimateStation.aspx,cfs,3286,10/1/56,9/30/65,8
918,EMIPARCO,9092850,"EAST MIDDLE FORK PARACHUTE CR NR RIO BLANCO, CO.",USGS,5,39,GARFIELD,CO,239905.8,4390060.2,39.620814,-108.030084,User supplied,10/1/76,9/30/83,6/17/15,http://cdss.state.co.us/onlineTools/Pages/ClimateStation.aspx,cfs,2555,10/1/76,9/30/83,6
919,,9095400,"DRY FORK NEAR DE BEQUE, CO.",USGS,5,70,GARFIELD,CO,218977.8,4362788.9,39.368875,-108.262037,User supplied,10/1/74,9/30/82,6/17/15,http://cdss.state.co.us/onlineTools/Pages/ClimateStation.aspx,cfs,2921,10/1/74,9/30/82,7
920,PLAUPPCO,9096000,"PLATEAU CREEK AT UPPER STA, NEAR COLLBRAN, CO.",USGS,5,72,MESA,CO,258115.2,4345330.9,39.223598,-107.802021,User supplied,5/1/37,4/30/58,6/17/15,http://cdss.state.co.us/onlineTools/Pages/ClimateStation.aspx,cfs,7669,5/1/37,4/30/58,20
921,KIEXLOCO,9106108,"KIEFER EXTENSION GRAND VALLEY CANAL NR LOMA, CO.",USGS,5,72,MESA,CO,170320.2,4349005.7,39.227767,-108.819006,User supplied,10/1/75,12/31/85,6/17/15,http://cdss.state.co.us/onlineTools/Pages/ClimateStation.aspx,cfs,3744,10/1/75,12/31/85,10
933,BADORMCO,9160500,"BADGER WASH OBSERVATION RES 12 NEAR MACK, CO.",USGS,5,72,MESA,CO,161138.6,4360027.9,39.323318,-108.930669,User supplied,5/1/76,9/30/82,6/17/15,http://cdss.state.co.us/onlineTools/Pages/ClimateStation.aspx,cfs,2343,5/1/76,9/30/82,6
934,MACKWACO,9163340,"MACK WASH NEAR MACK, CO.",USGS,5,72,MESA,CO,168436.9,4353318.1,39.265818,-108.842891,User supplied,8/1/73,9/30/82,6/17/15,http://cdss.state.co.us/onlineTools/Pages/ClimateStation.aspx,cfs,3347,8/1/73,9/30/82,9
1016,TONHARCO,9012420,"TONAHUTU CREEK BLW HARBISON DITCH NR GRAND LAKE,CO",USGS,5,51,GRAND,CO,430204.3,4457522.6,40.265273,-105.82086,User supplied,6/1/69,9/30/69,6/17/15,http://cdss.state.co.us/onlineTools/Pages/ClimateStation.aspx,cfs,121,6/1/69,9/30/69,0
1017,NORTINCO,9012500,"NORTH INLET AT GRAND LAKE, CO",USGS,5,51,GRAND,CO,430733.9,4455917.8,40.250858,-105.814454,User supplied,10/1/47,9/30/55,6/17/15,http://cdss.state.co.us/onlineTools/Pages/ClimateStation.aspx,cfs,2921,10/1/47,9/30/55,7
1018,ARABMOCO,9017000,"ARAPAHO CREEK BELOW MONARCH LAKE, CO.",USGS,5,51,GRAND,CO,433875.8,4442442.3,40.129711,-105.776128,User supplied,10/1/35,9/30/44,6/17/15,http://cdss.state.co.us/onlineTools/Pages/ClimateStation.aspx,cfs,3287,10/1/35,9/30/44,8
1019,WILCRKCO,9020000,"WILLOW CREEK NEAR GRANBY, CO.",USGS,5,51,GRAND,CO,414082.8,4448284,40.180547,-106.009193,User supplied,4/1/35,9/30/54,6/17/15,http://cdss.state.co.us/onlineTools/Pages/ClimateStation.aspx,cfs,7122,4/1/35,9/30/54,19
1021,SOFWABCO,9035850,"SO FK WILLIAMS FK AB SHORT CR NR PTARMIGAN PASS,",USGS,5,51,GRAND,CO,415102.9,4395267.3,39.703045,-105.990304,User supplied,10/1/84,9/30/87,6/17/15,http://cdss.state.co.us/onlineTools/Pages/ClimateStation.aspx,cfs,1094,10/1/84,9/30/87,2
1022,,9035900,"SOUTH FORK OF WILLIAMS FORK NEAR LEAL, CO",USGS,5,51,GRAND,CO,411768.2,4405603.5,39.79583,-106.030587,User supplied,10/1/65,10/18/20,10/19/20,http://cdss.state.co.us/onlineTools/Pages/ClimateStation.aspx,cfs,20106,10/1/65,10/18/20,55
1023,MUDNEKCO,9041000,"MUDDY CREEK NEAR KREMMLING, CO.",USGS,5,50,GRAND,CO,373898,4461400.2,40.2936,-106.483658,User supplied,10/1/37,9/30/99,6/17/15,http://cdss.state.co.us/onlineTools/Pages/ClimateStation.aspx,cfs,22644,10/1/37,9/30/99,61
1024,PASKRECO,9041300,"PASS CREEK NEAR KREMMLING, CO.",USGS,5,50,GRAND,CO,373031.5,4443557.2,40.132767,-106.490319,User supplied,10/1/57,9/30/70,6/17/15,http://cdss.state.co.us/onlineTools/Pages/ClimateStation.aspx,cfs,4747,10/1/57,9/30/70,12
1025,BLAGRECO,9054500,"BLACK CREEK ABOVE GREEN MOUNTAIN RESERVOIR, CO.",USGS,5,36,SUMMIT,CO,392858.6,4412505.3,39.855823,-106.252533,User supplied,10/1/44,9/30/53,6/17/15,http://cdss.state.co.us/onlineTools/Pages/ClimateStation.aspx,cfs,3286,10/1/44,9/30/53,8
1026,DICKMICO,9058600,"DICKSON CREEK NEAR MINTURN, CO.",USGS,5,52,EAGLE,CO,375071.8,4395932.2,39.704115,-106.457259,User supplied,10/1/64,9/30/71,6/17/15,http://cdss.state.co.us/onlineTools/Pages/ClimateStation.aspx,cfs,2555,10/1/64,9/30/71,6
1027,EMENMICO,9058800,EAST MEADOW CREEK NEAR MINTURN CO.,USGS,5,52,EAGLE,CO,377739.8,4398947,39.731659,-106.426706,User supplied,10/1/64,9/30/04,6/17/15,http://cdss.state.co.us/onlineTools/Pages/ClimateStation.aspx,cfs,14609,10/1/64,9/30/04,39
1028,GORUPPCO,9065500,"GORE CREEK AT UPPER STATION, NEAR MINTURN, CO.",USGS,5,37,EAGLE,CO,390308.4,4387008.4,39.625819,-106.278082,User supplied,10/1/47,10/19/20,10/20/20,http://cdss.state.co.us/onlineTools/Pages/ClimateStation.aspx,cfs,26682,10/1/47,10/19/20,73
1029,BEAVONCO,9067000,"BEAVER CREEK AT AVON, CO",USGS,5,37,EAGLE,CO,369311,4387767,39.629702,-106.522811,GPS,5/1/74,10/19/20,10/20/20,http://cdss.state.co.us/onlineTools/Pages/ClimateStation.aspx,cfs,16973,5/1/74,10/19/20,46
1030,COLNEGCO,9071100,"COLORADO RIVER NEAR GLENWOOD SPRINGS, CO.",USGS,5,53,GARFIELD,CO,308731.7,4382399.5,39.569993,-107.226728,User supplied,10/1/69,9/30/77,6/17/15,http://cdss.state.co.us/onlineTools/Pages/ClimateStation.aspx,cfs,2921,10/1/69,9/30/77,7
1031,CASTNACO,9075000,"CASTLE CREEK NEAR ASPEN, CO.",USGS,5,38,PITKIN,CO,340375.7,4333904.8,39.139718,-106.846991,User supplied,10/1/11,9/30/19,6/17/15,http://cdss.state.co.us/onlineTools/Pages/ClimateStation.aspx,cfs,2921,10/1/11,9/30/19,7
1032,,9077250,"LILY PAD CREEK FEEDER CANAL NEAR NORRIE, CO.",USGS,5,38,PITKIN,CO,367297.9,4346632.4,39.25888,-106.538095,User supplied,10/1/73,9/30/83,6/17/15,http://cdss.state.co.us/onlineTools/Pages/ClimateStation.aspx,cfs,3651,10/1/73,9/30/83,9
1033,FRYSFUCO,9077800,SOUTH FORK FRYINGPAN RIVER AT UPPER  STATION NEAR NORRIE,BOR,5,38,PITKIN,CO,362713,4344493,39.238899,-106.590784,User supplied,10/1/63,10/19/20,10/19/20,http://cdss.state.co.us/onlineTools/Pages/ClimateStation.aspx,cfs,20838,10/1/63,10/19/20,57
1034,FRYTHOCO,9078600,"FRYINGPAN RIVER NEAR THOMASVILLE, CO.",DWR,5,38,PITKIN,CO,355765.1,4356427,39.345262,-106.673818,User supplied,10/1/75,10/19/20,10/20/20,http://cdss.state.co.us/onlineTools/Pages/ClimateStation.aspx,cfs,16455,10/1/75,10/19/20,45
1036,COLGLECO,9085100,"COLORADO RIVER BELOW GLENWOOD SPRINGS, CO.",USGS,5,45,GARFIELD,CO,299167.2,4380976.1,39.554982,-107.337554,User supplied,10/1/66,10/19/20,10/20/20,http://cdss.state.co.us/onlineTools/Pages/ClimateStation.aspx,cfs,19742,10/1/66,10/19/20,54
1037,,9085400,"POSSUM CREEK NEAR NEW CASTLE, CO.",USGS,5,39,GARFIELD,CO,291872.2,4385921,39.597765,-107.423957,User supplied,3/1/69,9/30/82,6/17/15,http://cdss.state.co.us/onlineTools/Pages/ClimateStation.aspx,cfs,4961,3/1/69,9/30/82,13
1038,,9091500,"EAST RIFLE CREEK NEAR RIFLE, CO.",USGS,5,39,GARFIELD,CO,268570.6,4395473.3,39.677761,-107.698403,User supplied,10/1/36,9/30/64,6/17/15,http://cdss.state.co.us/onlineTools/Pages/ClimateStation.aspx,cfs,10226,10/1/36,9/30/64,27
1039,,9092800,"WEST FORK PARACHUTE CREEK NEAR PARACHUTE, CO",USGS,5,39,GARFIELD,CO,231499.7,4386538.2,39.586532,-108.126452,User supplied,10/1/57,9/30/62,6/17/15,http://cdss.state.co.us/onlineTools/Pages/ClimateStation.aspx,cfs,1825,10/1/57,9/30/62,4
1040,CAMSPLCO,9095529,"CAMP NO. 7 SPILLWAY NEAR MACK, CO.",USGS,5,72,MESA,CO,169332.7,4354052.4,39.272759,-108.832888,User supplied,10/1/75,9/30/82,6/17/15,http://cdss.state.co.us/onlineTools/Pages/ClimateStation.aspx,cfs,2556,10/1/75,9/30/82,6
1041,GOVMACCO,9095530,"GOVERNMENT HIGHLINE CANAL NEAR MACK, CO.",USGS,5,72,MESA,CO,169633.8,4355491.8,39.28582,-108.830113,User supplied,4/1/73,9/30/82,6/17/15,http://cdss.state.co.us/onlineTools/Pages/ClimateStation.aspx,cfs,3469,4/1/73,9/30/82,9
1047,REEMACCO,9153290,"REED WASH NEAR MACK, CO.",USGS,5,72,MESA,CO,171563.1,4347130.5,39.21137,-108.803725,User supplied,10/1/75,9/30/00,6/17/15,http://cdss.state.co.us/onlineTools/Pages/ClimateStation.aspx,cfs,9131,10/1/75,9/30/00,24
1110,COLBAKCO,9010500,"COLORADO RIVER BELOW BAKER GULCH NR GRAND LAKE, CO",USGS,5,51,GRAND,CO,427222.4,4464272.9,40.325818,-105.856679,User supplied,6/1/53,10/19/20,10/20/20,http://cdss.state.co.us/onlineTools/Pages/ClimateStation.aspx,cfs,24612,6/1/53,10/19/20,67
1111,CABFRACO,9032100,"CABIN CREEK NEAR FRASER, CO.",USGS,5,51,GRAND,CO,436393,4426449.1,39.98582,-105.745006,User supplied,10/1/83,10/19/20,10/20/20,http://cdss.state.co.us/onlineTools/Pages/ClimateStation.aspx,cfs,13533,10/1/83,10/19/20,37
1112,SOFWANCO,9035845,"SO FK WILLIAMS FK TRIB NR PTARMIGAN PASS, CO",USGS,5,51,GRAND,CO,415507.4,4395232,39.70277,-105.985588,User supplied,10/1/84,9/30/86,6/17/15,http://cdss.state.co.us/onlineTools/Pages/ClimateStation.aspx,cfs,729,10/1/84,9/30/86,1
1113,SPRUBRCO,9045500,"SPRUCE CREEK NEAR BRECKENRIDGE, CO.",USGS,5,36,SUMMIT,CO,410336.1,4366214.7,39.440829,-106.041975,User supplied,10/1/53,9/30/58,6/17/15,http://cdss.state.co.us/onlineTools/Pages/ClimateStation.aspx,cfs,1825,10/1/53,9/30/58,4
1114,BLUADICO,9047000,"BLUE RIVER AT DILLON, CO.",USGS,5,36,SUMMIT,CO,409700,4385431.1,39.61388,-106.051974,User supplied,10/1/10,4/30/61,6/17/15,http://cdss.state.co.us/onlineTools/Pages/ClimateStation.aspx,cfs,18474,10/1/10,4/30/61,#NUM!
1115,BLUDILCO,9050700,"BLUE RIVER BELOW DILLON, CO.",USGS,5,36,SUMMIT,CO,408475.4,4386740.6,39.625542,-106.066408,User supplied,1/1/60,10/19/20,10/20/20,http://cdss.state.co.us/onlineTools/Pages/ClimateStation.aspx,cfs,22207,1/1/60,10/19/20,60
1116,BOCDILCO,9052500,"BOULDER CREEK NEAR DILLON, CO.",USGS,5,36,SUMMIT,CO,402671.9,4399207.3,39.737212,-106.135864,User supplied,10/1/42,9/30/51,6/17/15,http://cdss.state.co.us/onlineTools/Pages/ClimateStation.aspx,cfs,3286,10/1/42,9/30/51,8
1117,BLUABOCO,9053500,"BLUE RIVER ABOVE GREEN MOUNTAIN RESERVOIR, CO.",USGS,5,36,SUMMIT,CO,395365,4409818.6,39.83194,-106.222814,User supplied,10/1/43,9/30/87,6/17/15,http://cdss.state.co.us/onlineTools/Pages/ClimateStation.aspx,cfs,16070,10/1/43,9/30/87,43
1118,COLRADCO,9058030,"COLORADO RIVER NEAR RADIUM, CO.",USGS,5,52,GRAND,CO,369900.3,4425197.9,39.966937,-106.523383,User supplied,9/1/81,9/30/90,6/17/15,http://cdss.state.co.us/onlineTools/Pages/ClimateStation.aspx,cfs,3316,9/1/81,9/30/90,9
1119,DICKVACO,9058610,"DICKSON CREEK NEAR VAIL, CO.",USGS,5,52,EAGLE,CO,375071.8,4395932.2,39.704115,-106.457259,User supplied,10/1/71,9/30/04,6/17/15,http://cdss.state.co.us/onlineTools/Pages/ClimateStation.aspx,cfs,12053,10/1/71,9/30/04,32
1120,,9060800,"BIG ALKALI CREEK NEAR BURNS, CO.",USGS,5,52,EAGLE,CO,346378.9,4413328.8,39.856105,-106.795883,User supplied,10/1/58,9/30/65,6/17/15,http://cdss.state.co.us/onlineTools/Pages/ClimateStation.aspx,cfs,2556,10/1/58,9/30/65,6
1121,ROADIFCO,9073300,"ROARING FORK RIVER AB DIFFICULT C NR ASPEN, CO.",USGS,5,38,PITKIN,CO,346669.1,4333933.6,39.1411,-106.774204,User supplied,10/1/79,10/19/20,10/19/20,http://cdss.state.co.us/onlineTools/Pages/ClimateStation.aspx,cfs,14994,10/1/79,10/19/20,41
1122,,9073890,"NO NAME CREEK FEEDER CONDUIT NEAR ASPEN, CO",USGS,5,38,PITKIN,CO,351438.4,4338467.7,39.182775,-106.720052,User supplied,6/1/80,8/24/20,9/16/20,http://cdss.state.co.us/onlineTools/Pages/ClimateStation.aspx,cfs,14694,6/1/80,8/24/20,40
1123,,9073900,"NO NAME CREEK NEAR ASPEN, CO.",USGS,5,38,PITKIN,CO,351595.2,4339143.2,39.188881,-106.718383,User supplied,10/1/70,9/30/80,6/17/15,http://cdss.state.co.us/onlineTools/Pages/ClimateStation.aspx,cfs,3652,10/1/70,9/30/80,9
1124,CARFENCO,9078060,"CARTER CREEK FEEDER CANAL NEAR NORRIE, CO.",USGS,5,38,EAGLE,CO,366950.9,4358603.4,39.366656,-106.544485,User supplied,5/1/81,9/30/83,6/17/15,http://cdss.state.co.us/onlineTools/Pages/ClimateStation.aspx,cfs,882,5/1/81,9/30/83,2
1125,FRYRUDCO,9080400,"FRYINGPAN RIVER NEAR RUEDI, CO.",USGS,5,38,PITKIN,CO,342729.8,4358931.7,39.365541,-106.825595,User supplied,10/1/64,10/19/20,10/20/20,http://cdss.state.co.us/onlineTools/Pages/ClimateStation.aspx,cfs,20472,10/1/64,10/19/20,56
1126,CRYAVACO,9081600,"CRYSTAL RIVER ABV AVALANCHE CRK, NEAR REDSTONE, CO",USGS,5,38,PITKIN,CO,307740.2,4344957.6,39.232639,-107.2275,User supplied,10/1/55,10/19/20,10/20/20,http://cdss.state.co.us/onlineTools/Pages/ClimateStation.aspx,cfs,23760,10/1/55,10/19/20,65
1127,NOTHOMCO,9082800,"NORTH THOMPSON CREEK NEAR CARBONDALE, CO.",USGS,5,38,PITKIN,CO,298878,4355961.7,39.329714,-107.333397,User supplied,10/1/63,9/30/79,6/17/15,http://cdss.state.co.us/onlineTools/Pages/ClimateStation.aspx,cfs,5843,10/1/63,9/30/79,15
1128,FOUGLECO,9084600,"FOURMILE CREEK NEAR GLENWOOD SPRINGS, CO.",USGS,5,38,GARFIELD,CO,299846.7,4363804.1,39.400543,-107.324504,User supplied,10/1/57,9/30/65,6/17/15,http://cdss.state.co.us/onlineTools/Pages/ClimateStation.aspx,cfs,2921,10/1/57,9/30/65,7
1129,,9087500,"ELK CREEK AT NEW CASTLE, CO.",USGS,5,39,GARFIELD,CO,281839.6,4383173.9,39.570542,-107.539785,User supplied,4/1/22,9/30/60,6/17/15,http://cdss.state.co.us/onlineTools/Pages/ClimateStation.aspx,cfs,14062,4/1/22,9/30/60,#NUM!
1130,PARPARCO,9093000,PARACHUTE CREEK NEAR PARACHUTE CO.,USGS,5,39,GARFIELD,CO,232758.5,4384315.4,39.566924,-108.110929,User supplied,10/1/48,9/30/86,6/17/15,http://cdss.state.co.us/onlineTools/Pages/ClimateStation.aspx,cfs,13878,10/1/48,9/30/86,37
1131,COLDBQCO,9093700,"COLORADO RIVER NEAR DE BEQUE, CO.",USGS,5,45,MESA,CO,228383.9,4361744.4,39.362481,-108.152589,User supplied,10/1/66,7/5/98,6/17/15,http://cdss.state.co.us/onlineTools/Pages/ClimateStation.aspx,cfs,11600,10/1/66,7/5/98,31
1132,BULAUPCO,9101500,"BULL CREEK AT UPPER STATION, NEAR MOLINA, CO.",USGS,5,72,MESA,CO,237547.6,4334140.5,39.116925,-108.035633,User supplied,5/1/45,9/30/53,6/17/15,http://cdss.state.co.us/onlineTools/Pages/ClimateStation.aspx,cfs,3074,5/1/45,9/30/53,8
1140,WESALTCO,9153330,"WEST SALT CREEK NEAR CARBONERA, CO.",USGS,5,72,GARFIELD,CO,157112.8,4368331.3,39.396369,-108.981506,User supplied,10/1/79,9/30/82,6/17/15,http://cdss.state.co.us/onlineTools/Pages/ClimateStation.aspx,cfs,1095,10/1/79,9/30/82,2
1202,LOCOLSCO,9011500,"L COLUMBINE C AB SHADOW MTN LK, AT GRAND LK, CO.",USGS,5,51,GRAND,CO,429057.2,4456114.9,40.252492,-105.834192,User supplied,10/1/50,9/30/55,6/17/15,http://cdss.state.co.us/onlineTools/Pages/ClimateStation.aspx,cfs,1825,10/1/50,9/30/55,4
1204,COLNGBCO,9019500,"COLORADO RIVER NEAR GRANBY, CO",USGS,5,51,GRAND,CO,423262.8,4441555.7,40.120819,-105.900569,User supplied,1/1/08,10/19/20,10/20/20,http://cdss.state.co.us/onlineTools/Pages/ClimateStation.aspx,cfs,41200,1/1/08,10/19/20,12
1205,WILWCRCO,9021000,WILLOW CREEK BELOW WILLOW CREEK RESERVOIR,USGS,5,51,GRAND,CO,419951.6,4444374,40.145905,-105.939779,User supplied,10/1/53,10/19/20,10/20/20,http://cdss.state.co.us/onlineTools/Pages/ClimateStation.aspx,cfs,24490,10/1/53,10/19/20,67
1206,FRAUPPCO,9022000,"FRASER RIVER AT UPPER STA, NEAR WINTER PARK, CO.",USGS,5,51,GRAND,CO,435669.2,4410915.4,39.84582,-105.751951,User supplied,10/1/68,10/19/20,10/20/20,http://cdss.state.co.us/onlineTools/Pages/ClimateStation.aspx,cfs,19011,10/1/68,10/19/20,52
1207,RANTABCO,9032500,"RANCH CREEK NEAR TABERNASH, CO.",USGS,5,51,GRAND,CO,429692.9,4427803.1,39.997492,-105.823631,User supplied,10/1/34,9/30/60,6/17/15,http://cdss.state.co.us/onlineTools/Pages/ClimateStation.aspx,cfs,9496,10/1/34,9/30/60,25
1208,WILSTECO,9035500,"WILLIAMS FORK BELOW STEELMAN CREEK, CO.",USGS,5,51,GRAND,CO,420500.9,4403627,39.778881,-105.928356,User supplied,7/1/33,10/18/20,10/19/20,http://cdss.state.co.us/onlineTools/Pages/ClimateStation.aspx,cfs,31886,7/1/33,10/18/20,87
1209,SOFWIPCO,9035820,"SO FK WILLIAMS FK AT UP STA NR PTARMIGAN PASS, C",USGS,5,51,GRAND,CO,418776.7,4395813.5,39.708331,-105.947521,User supplied,10/1/84,9/30/87,6/17/15,http://cdss.state.co.us/onlineTools/Pages/ClimateStation.aspx,cfs,1094,10/1/84,9/30/87,2
1210,WILPARCO,9037500,"WILLIAMS FORK NEAR PARSHALL, CO",USGS,5,51,GRAND,CO,399243.2,4428446.5,40.0002,-106.180367,User supplied,10/1/04,10/19/20,10/20/20,http://cdss.state.co.us/onlineTools/Pages/ClimateStation.aspx,cfs,42387,10/1/04,10/19/20,16
1211,BLUPHOCO,9046601,BLUE R NR DILLON PLUS HOOSIER PASS TUNNEL COLO,USGS,5,36,SUMMIT,CO,410713.2,4378173.5,39.548608,-106.039198,User supplied,10/1/57,9/30/67,6/17/15,http://cdss.state.co.us/onlineTools/Pages/ClimateStation.aspx,cfs,3651,10/1/57,9/30/67,9
1212,STRABLCO,9051050,"STRAIGHT CR BLW LASKEY GULCH NR DILLON, CO",USGS,5,36,SUMMIT,CO,410734.7,4388286.7,39.639709,-106.040296,User supplied,10/1/86,10/19/20,10/20/20,http://cdss.state.co.us/onlineTools/Pages/ClimateStation.aspx,cfs,12437,10/1/86,10/19/20,34
1213,SLADILCO,9053000,"SLATE CREEK NEAR DILLON, CO.",USGS,5,36,SUMMIT,CO,399998.8,4404175.3,39.781655,-106.167809,User supplied,10/1/42,9/30/54,6/17/15,http://cdss.state.co.us/onlineTools/Pages/ClimateStation.aspx,cfs,4382,10/1/42,9/30/54,11
1214,CATANKCO,9055300,"CATARACT CREEK NEAR KREMMLING, CO.",USGS,5,36,SUMMIT,CO,387359.6,4410302.2,39.835267,-106.316424,User supplied,10/1/66,9/30/94,6/17/15,http://cdss.state.co.us/onlineTools/Pages/ClimateStation.aspx,cfs,10226,10/1/66,9/30/94,27
1215,PINSTBCO,9059500,"PINEY RIVER NEAR STATE BRIDGE, CO",USGS,5,52,EAGLE,CO,365211.5,4406270.1,39.795722,-106.574347,User supplied,6/1/44,10/19/20,10/20/20,http://cdss.state.co.us/onlineTools/Pages/ClimateStation.aspx,cfs,27899,6/1/44,10/19/20,76
1216,,9060900,"CATAMOUNT CREEK NEAR BURNS, CO.",USGS,5,52,EAGLE,CO,345179.6,4411625.6,39.840551,-106.80949,User supplied,10/1/55,9/30/61,6/17/15,http://cdss.state.co.us/onlineTools/Pages/ClimateStation.aspx,cfs,2191,10/1/55,9/30/61,5
1218,EAGREDCO,9063000,"EAGLE RIVER AT RED CLIFF, CO.",USGS,5,37,EAGLE,CO,382504.7,4374079.3,39.508319,-106.366695,User supplied,10/1/10,10/19/20,10/19/20,http://cdss.state.co.us/onlineTools/Pages/ClimateStation.aspx,cfs,40196,10/1/10,10/19/20,10
1219,TURREDCO,9063400,"TURKEY CREEK NEAR RED CLIFF, CO.",USGS,5,37,EAGLE,CO,385120,4375626,39.522603,-106.33655,User supplied,10/1/63,9/30/08,6/17/15,http://cdss.state.co.us/onlineTools/Pages/ClimateStation.aspx,cfs,16436,10/1/63,9/30/08,44
1220,,9067500,"EAGLE RIVER AT EAGLE, CO.",USGS,5,37,EAGLE,CO,343408.9,4391242.2,39.656656,-106.825327,User supplied,10/1/11,9/30/24,6/17/15,http://cdss.state.co.us/onlineTools/Pages/ClimateStation.aspx,cfs,4748,10/1/11,9/30/24,12
1221,ROALMCCO,9072550,"ROARING FORK RIVER ABV LOST MAN CR NEAR ASPEN, CO",USGS,5,38,PITKIN,CO,359614.8,4331277.7,39.119361,-106.623917,User supplied,10/1/80,10/19/20,10/20/20,http://cdss.state.co.us/onlineTools/Pages/ClimateStation.aspx,cfs,14628,10/1/80,10/19/20,40
1222,FRYNEACO,9077400,"FRYINGPAN RIVER NEAR NORRIE, CO.",USGS,5,38,PITKIN,CO,361714.6,4350861.5,39.296108,-106.603651,User supplied,10/1/63,9/30/67,6/17/15,http://cdss.state.co.us/onlineTools/Pages/ClimateStation.aspx,cfs,1460,10/1/63,9/30/67,3
1223,CHAGULCO,9077945,"CHAPMAN GULCH NEAR NAST, CO.",BOR,5,38,PITKIN,CO,359183.2,4347396,39.264481,-106.632277,User supplied,10/1/72,10/19/20,10/19/20,http://cdss.state.co.us/onlineTools/Pages/ClimateStation.aspx,cfs,17550,10/1/72,10/19/20,48
1224,NOFRYCCO,9078040,"NF FRYINGPAN RIVER FEEDER CANAL NEAR NORRIE, CO.",USGS,5,38,EAGLE,CO,367515.8,4358038.6,39.361663,-106.537817,User supplied,5/1/81,9/30/83,6/17/15,http://cdss.state.co.us/onlineTools/Pages/ClimateStation.aspx,cfs,882,5/1/81,9/30/83,2
1225,CRYREDCO,9082500,"CRYSTAL RIVER NEAR REDSTONE, CO.",USGS,5,38,PITKIN,CO,309066,4352250.1,39.2986,-107.214228,User supplied,10/1/35,9/30/63,6/17/15,http://cdss.state.co.us/onlineTools/Pages/ClimateStation.aspx,cfs,10226,10/1/35,9/30/63,27
1226,EELKBOCO,9086970,"EAST ELK CREEK AB BOILER CREEK NR NEW CASTLE, CO",USGS,5,39,GARFIELD,CO,283408.7,4393961.1,39.668041,-107.525064,User supplied,10/1/90,3/30/98,6/17/15,http://cdss.state.co.us/onlineTools/Pages/ClimateStation.aspx,cfs,2737,10/1/90,3/30/98,7
1227,,9088000,"BALDY CREEK NEAR NEW CASTLE, CO.",USGS,5,45,GARFIELD,CO,284872.4,4373708.2,39.486096,-107.501457,User supplied,10/1/55,9/30/61,6/17/15,http://cdss.state.co.us/onlineTools/Pages/ClimateStation.aspx,cfs,2191,10/1/55,9/30/61,5
1228,NORWATCO,9092830,"NORTHWATER CREEK NEAR ANVIL POINTS, CO.",USGS,5,39,GARFIELD,CO,241382.4,4389948.9,39.620262,-108.012868,User supplied,10/1/76,4/30/83,6/17/15,http://cdss.state.co.us/onlineTools/Pages/ClimateStation.aspx,cfs,2402,10/1/76,4/30/83,6
1229,COTAUPCO,9100500,"COTTONWOOD CREEK AT UPPER STA, NEAR MOLINA, CO.",USGS,5,72,MESA,CO,240974.3,4335230.5,39.127758,-107.996473,User supplied,6/1/45,9/30/57,6/17/15,http://cdss.state.co.us/onlineTools/Pages/ClimateStation.aspx,cfs,4504,6/1/45,9/30/57,12
1239,ADOFRUCO,9152900,"ADOBE CREEK NEAR FRUITA, CO.",USGS,5,72,MESA,CO,180414.9,4338484.8,39.136932,-108.697332,User supplied,4/1/73,9/30/83,6/17/15,http://cdss.state.co.us/onlineTools/Pages/ClimateStation.aspx,cfs,3834,4/1/73,9/30/83,10
1240,WESALMCO,9153400,"WEST SALT CREEK NEAR MACK, CO.",USGS,5,72,MESA,CO,156490.9,4358593.9,39.308596,-108.983731,User supplied,8/1/73,9/30/83,6/17/15,http://cdss.state.co.us/onlineTools/Pages/ClimateStation.aspx,cfs,3712,8/1/73,9/30/83,10
1241,SALTMACO,9163490,"SALT CREEK NEAR MACK, CO.",USGS,5,72,MESA,CO,163910.3,4348599.2,39.221651,-108.892898,User supplied,4/1/73,9/30/83,6/17/15,http://cdss.state.co.us/onlineTools/Pages/ClimateStation.aspx,cfs,3834,4/1/73,9/30/83,10
1302,TONGRACO,9012400,"TONAHUTU CREEK NEAR GRAND LAKE, COLO.",USGS,5,51,GRAND,CO,430325.9,4457891.5,40.268607,-105.819466,User supplied,6/1/69,9/30/69,6/17/15,http://cdss.state.co.us/onlineTools/Pages/ClimateStation.aspx,cfs,121,6/1/69,9/30/69,0
1303,FRAWINCO,9024000,"FRASER RIVER AT WINTER PARK, CO.",USGS,5,51,GRAND,CO,433606.3,4416945.5,39.899987,-105.776674,User supplied,10/1/10,10/19/20,10/19/20,http://cdss.state.co.us/onlineTools/Pages/ClimateStation.aspx,cfs,40196,10/1/10,10/19/20,10
1304,RANFRACO,9032000,"RANCH CREEK NEAR FRASER, CO.",USGS,5,51,GRAND,CO,434603.7,4422486.8,39.949987,-105.765563,User supplied,10/1/34,10/19/20,10/20/20,http://cdss.state.co.us/onlineTools/Pages/ClimateStation.aspx,cfs,31430,10/1/34,10/19/20,86
1305,MUDAACCO,9041090,"MUDDY CREEK ABOVE ANTELOPE CREEK NR. KREMMLING, CO",USGS,5,50,GRAND,CO,378930.2,4451201.6,40.202484,-106.422534,User supplied,4/1/90,10/19/20,10/20/20,http://cdss.state.co.us/onlineTools/Pages/ClimateStation.aspx,cfs,11159,4/1/90,10/19/20,30
1306,MCCBRECO,9045000,"MCCULLOUGH GULCH NEAR BRECKENRIDGE,CO.",USGS,5,36,SUMMIT,CO,409427.4,4362093.7,39.403607,-106.051978,User supplied,10/1/53,6/30/58,6/17/15,http://cdss.state.co.us/onlineTools/Pages/ClimateStation.aspx,cfs,1733,10/1/53,6/30/58,4
1307,ROCDILCO,9052000,"ROCK CREEK NEAR DILLON, CO.",USGS,5,36,SUMMIT,CO,403270.9,4397627.2,39.723046,-106.128643,User supplied,10/1/42,9/30/94,6/17/15,http://cdss.state.co.us/onlineTools/Pages/ClimateStation.aspx,cfs,18992,10/1/42,9/30/94,51
1308,EAGMINCO,9064600,"EAGLE RIVER NEAR MINTURN, CO",USGS,5,37,EAGLE,CO,379502.7,4379182.8,39.553875,-106.402529,User supplied,10/1/89,10/19/20,10/20/20,http://cdss.state.co.us/onlineTools/Pages/ClimateStation.aspx,cfs,11341,10/1/89,10/19/20,31
1309,,9066050,"BLACK GORE CREEK NEAR VAIL, CO.",USGS,5,37,EAGLE,CO,390113.6,4386733.7,39.623328,-106.280312,User supplied,10/1/73,9/30/79,6/17/15,http://cdss.state.co.us/onlineTools/Pages/ClimateStation.aspx,cfs,2190,10/1/73,9/30/79,5
1310,,9066100,"BIGHORN CREEK NEAR MINTURN, CO",USGS,5,37,EAGLE,CO,389019.7,4388599.6,39.639996,-106.293368,User supplied,10/1/63,9/30/08,6/17/15,http://cdss.state.co.us/onlineTools/Pages/ClimateStation.aspx,cfs,16436,10/1/63,9/30/08,44
1311,,9066500,"GORE CREEK NEAR MINTURN, CO.",USGS,5,37,EAGLE,CO,376388.9,4385985.5,39.614718,-106.44004,User supplied,10/1/44,9/30/56,6/17/15,http://cdss.state.co.us/onlineTools/Pages/ClimateStation.aspx,cfs,4382,10/1/44,9/30/56,11
1312,,9068000,"BRUSH CREEK NEAR EAGLE, CO.",USGS,5,37,EAGLE,CO,348530.7,4380097.8,39.557215,-106.763101,User supplied,10/1/50,9/30/72,6/17/15,http://cdss.state.co.us/onlineTools/Pages/ClimateStation.aspx,cfs,8035,10/1/50,9/30/72,21
1313,GYPGYPCO,9069500,"GYPSUM CREEK NEAR GYPSUM, CO.",USGS,5,37,EAGLE,CO,333753.2,4379106,39.545545,-106.93478,User supplied,10/1/50,9/30/72,6/17/15,http://cdss.state.co.us/onlineTools/Pages/ClimateStation.aspx,cfs,8035,10/1/50,9/30/72,21
1314,CASTASCO,9074800,"CASTLE CREEK ABOVE ASPEN, CO.",USGS,5,38,PITKIN,CO,343261.1,4328048.6,39.087499,-106.812273,User supplied,9/1/69,9/30/94,6/17/15,http://cdss.state.co.us/onlineTools/Pages/ClimateStation.aspx,cfs,9160,9/1/69,9/30/94,25
1315,FRYNORCO,9077150,"FRYINGPAN RIVER FEEDER CANAL NEAR NORRIE, CO.",USGS,5,38,PITKIN,CO,367942.9,4345079.5,39.244998,-106.530318,User supplied,10/1/71,9/30/83,6/17/15,http://cdss.state.co.us/onlineTools/Pages/ClimateStation.aspx,cfs,4382,10/1/71,9/30/83,11
1316,SOFRINCO,9077900,"SOUTH FORK FRYINGPAN RIVER NEAR NORRIE, CO.",USGS,5,38,PITKIN,CO,360384.7,4351532.8,39.301939,-106.619208,User supplied,10/1/63,9/30/67,6/17/15,http://cdss.state.co.us/onlineTools/Pages/ClimateStation.aspx,cfs,1460,10/1/63,9/30/67,3
1317,CHAGNOCO,9077950,"CHAPMAN GULCH NEAR NORRIE, CO.",USGS,5,38,PITKIN,CO,358949.8,4347703.7,39.267218,-106.635042,User supplied,10/1/66,9/30/72,6/17/15,http://cdss.state.co.us/onlineTools/Pages/ClimateStation.aspx,cfs,2191,10/1/66,9/30/72,5
1318,MORFENCO,9078050,"MORMON CREEK FEEDER CANAL NEAR NORRIE, CO.",USGS,5,38,PITKIN,CO,367839.3,4357354.7,39.355551,-106.533935,User supplied,6/1/79,9/30/83,6/17/15,http://cdss.state.co.us/onlineTools/Pages/ClimateStation.aspx,cfs,1582,6/1/79,9/30/83,4
1319,PRICARCO,9083700,"PRINCE CREEK NEAR CARBONDALE, CO.",USGS,5,38,PITKIN,CO,315576.5,4354900.7,39.323882,-107.13951,User supplied,10/1/63,9/30/68,6/17/15,http://cdss.state.co.us/onlineTools/Pages/ClimateStation.aspx,cfs,1826,10/1/63,9/30/68,4
1320,CATCARCO,9084000,"CATTLE CREEK NEAR CARBONDALE, CO.",USGS,5,38,EAGLE,CO,323456.2,4370573.5,39.466661,-107.052283,User supplied,10/1/50,9/30/72,6/17/15,http://cdss.state.co.us/onlineTools/Pages/ClimateStation.aspx,cfs,8035,10/1/50,9/30/72,21
1321,,9092500,"BEAVER CREEK NEAR RIFLE, CO.",USGS,5,45,GARFIELD,CO,256341.5,4372979.1,39.471929,-107.832572,User supplied,10/1/52,9/30/82,6/17/15,http://cdss.state.co.us/onlineTools/Pages/ClimateStation.aspx,cfs,10956,10/1/52,9/30/82,29
1336,COLFRUCO,9153000,"COLORADO RIVER NEAR FRUITA, CO.",USGS,5,72,MESA,CO,177511.3,4338665.6,39.13749,-108.730948,User supplied,1/1/11,9/30/23,6/17/15,http://cdss.state.co.us/onlineTools/Pages/ClimateStation.aspx,cfs,4655,1/1/11,9/30/23,12
1337,BIGFRUCO,9153270,"BIG SALT WASH AT FRUITA, CO.",USGS,5,72,MESA,CO,175902.1,4341635.9,39.163599,-108.750945,User supplied,3/1/73,9/30/77,6/17/15,http://cdss.state.co.us/onlineTools/Pages/ClimateStation.aspx,cfs,1674,3/1/73,9/30/77,4
1413,EASTINCO,9013500,"EAST INLET NEAR GRAND LAKE, CO.",USGS,5,51,GRAND,CO,432088.7,4454298.5,40.236375,-105.798352,User supplied,10/1/47,9/30/55,6/17/15,http://cdss.state.co.us/onlineTools/Pages/ClimateStation.aspx,cfs,2921,10/1/47,9/30/55,7
1414,BOBJOPCO,9034900,"BOBTAIL CREEK NEAR JONES PASS, CO",USGS,5,51,GRAND,CO,422359.3,4401542.2,39.760268,-105.906416,User supplied,10/1/65,10/18/20,10/19/20,http://cdss.state.co.us/onlineTools/Pages/ClimateStation.aspx,cfs,20106,10/1/65,10/18/20,55
1415,SKYPARCO,9037200,"SKYLARK CREEK NEAR PARSHALL, CO.",USGS,5,51,GRAND,CO,400035.5,4417897,39.90527,-106.169473,User supplied,10/1/58,9/30/65,6/17/15,http://cdss.state.co.us/onlineTools/Pages/ClimateStation.aspx,cfs,2556,10/1/58,9/30/65,6
1416,TROUBLCO,9040500,"TROUBLESOME CREEK NEAR TROUBLESOME, CO.",USGS,5,50,GRAND,CO,388650.2,4435139,40.059157,-106.305598,User supplied,10/1/04,9/30/56,6/17/15,http://cdss.state.co.us/onlineTools/Pages/ClimateStation.aspx,cfs,18992,10/1/04,9/30/56,#NUM!
1417,BLUABLCO,9046490,"BLUE RIVER AT BLUE RIVER, CO.",USGS,5,36,SUMMIT,CO,411239.6,4367869.3,39.455821,-106.031685,User supplied,10/1/83,10/19/20,10/19/20,http://cdss.state.co.us/onlineTools/Pages/ClimateStation.aspx,cfs,13533,10/1/83,10/19/20,37
1418,KEYGUDCO,9047700,"KEYSTONE GULCH NEAR DILLON, CO.",USGS,5,36,SUMMIT,CO,416496.5,4383196.3,39.594431,-105.972516,User supplied,10/1/57,10/19/20,10/20/20,http://cdss.state.co.us/onlineTools/Pages/ClimateStation.aspx,cfs,23029,10/1/57,10/19/20,63
1419,TENFRICO,9050100,"TENMILE CREEK BL NORTH TENMILE C, AT FRISCO, CO.",USGS,5,36,SUMMIT,CO,404615.6,4381206.3,39.575264,-106.110577,User supplied,10/1/57,10/19/20,10/20/20,http://cdss.state.co.us/onlineTools/Pages/ClimateStation.aspx,cfs,23029,10/1/57,10/19/20,63
1420,WILDILCO,9051500,"WILLOW CREEK NEAR DILLON, CO.",USGS,5,36,SUMMIT,CO,407315.9,4389467.8,39.649994,-106.080308,User supplied,10/1/42,9/30/51,6/17/15,http://cdss.state.co.us/onlineTools/Pages/ClimateStation.aspx,cfs,3286,10/1/42,9/30/51,8
1421,BOCUPPCO,9052400,"BOULDER CREEK AT UPPER STATION, NEAR DILLON, CO.",USGS,5,36,SUMMIT,CO,399445,4398231.2,39.728045,-106.173368,User supplied,10/1/66,9/30/94,6/17/15,http://cdss.state.co.us/onlineTools/Pages/ClimateStation.aspx,cfs,10226,10/1/66,9/30/94,27
1422,BLUGRECO,9057500,"BLUE RIVER BELOW GREEN MOUNTAIN RESERVOIR, CO",USGS,5,36,SUMMIT,CO,385936.6,4415319.2,39.880264,-106.333918,User supplied,10/1/37,10/19/20,10/20/20,http://cdss.state.co.us/onlineTools/Pages/ClimateStation.aspx,cfs,30334,10/1/37,10/19/20,83
1423,BLUSPRCO,9057520,"BLUE RIVER BEL SPRUCE CR NR KREMMLING, CO",USGS,5,36,GRAND,CO,383821,4424602.7,39.963605,-106.360318,User supplied,10/1/89,1/31/94,6/17/15,http://cdss.state.co.us/onlineTools/Pages/ClimateStation.aspx,cfs,1583,10/1/89,1/31/94,4
1424,FREEMICO,9058700,"FREEMAN CREEK NEAR MINTURN, CO.",USGS,5,52,EAGLE,CO,376061.4,4395273.2,39.698323,-106.445602,User supplied,10/1/64,9/30/04,6/17/15,http://cdss.state.co.us/onlineTools/Pages/ClimateStation.aspx,cfs,14609,10/1/64,9/30/04,39
1425,ROCTOPCO,9060500,"ROCK CREEK NEAR TOPONAS, CO.",USGS,5,53,ROUTT,CO,358736.6,4433632.1,40.041103,-106.655878,User supplied,10/1/52,9/30/80,6/17/15,http://cdss.state.co.us/onlineTools/Pages/ClimateStation.aspx,cfs,10226,10/1/52,9/30/80,27
1426,ROCRATCO,9060550,"ROCK CREEK AT CRATER, CO.",USGS,5,53,ROUTT,CO,353981.6,4426751.3,39.978325,-106.710045,User supplied,10/1/84,9/30/99,6/17/15,http://cdss.state.co.us/onlineTools/Pages/ClimateStation.aspx,cfs,5477,10/1/84,9/30/99,14
1429,GRIZGLCO,9071300,"GRIZZLY CREEK NEAR GLENWOOD SPRINGS, CO.",USGS,5,53,GARFIELD,CO,301968,4398860.8,39.716657,-107.310344,User supplied,10/1/76,9/30/96,6/17/15,http://cdss.state.co.us/onlineTools/Pages/ClimateStation.aspx,cfs,7304,10/1/76,9/30/96,19
1430,COLAGSCO,9072500,"COLORADO RIVER AT GLENWOOD SPRINGS, CO.",USGS,5,53,GARFIELD,CO,300584.9,4380384,39.549987,-107.320898,User supplied,1899-10-01,9/30/66,6/17/15,http://cdss.state.co.us/onlineTools/Pages/ClimateStation.aspx,cfs,#VALUE!,1899-10-01,9/30/66,#VALUE!
1431,,9073790,"MIDWAY CREEK FEEDER CONDUIT NEAR ASPEN, CO",USGS,5,38,PITKIN,CO,354477.2,4339243.3,39.190269,-106.685047,User supplied,6/1/80,8/24/20,9/16/20,http://cdss.state.co.us/onlineTools/Pages/ClimateStation.aspx,cfs,14694,6/1/80,8/24/20,40
1432,ROABASCO,9075500,"ROARING FORK RIVER BELOW ASPEN, CO.",USGS,5,38,PITKIN,CO,341160,4341784.3,39.210823,-106.839773,User supplied,10/1/13,9/30/18,6/17/15,http://cdss.state.co.us/onlineTools/Pages/ClimateStation.aspx,cfs,1825,10/1/13,9/30/18,4
1433,MICUNNCO,9078150,"MIDDLE CUNNINGHAM CREEK FEEDER CA NR NORRIE, CO.",USGS,5,38,PITKIN,CO,366208.3,4354391.2,39.328602,-106.552268,User supplied,6/1/79,9/30/83,6/17/15,http://cdss.state.co.us/onlineTools/Pages/ClimateStation.aspx,cfs,1582,6/1/79,9/30/83,4
1434,FOUCARCO,9084500,"FOURMILE CREEK NEAR CARBONDALE, CO.",USGS,5,38,GARFIELD,CO,294282.2,4363394,39.395543,-107.388956,User supplied,10/1/41,9/30/47,6/17/15,http://cdss.state.co.us/onlineTools/Pages/ClimateStation.aspx,cfs,2190,10/1/41,9/30/47,5
1435,MELKNECO,9086470,"MAIN ELK CREEK NEAR NEW CASTLE, CO.",USGS,5,39,GARFIELD,CO,279317.8,4395188.3,39.678039,-107.573123,User supplied,10/1/90,4/1/98,6/17/15,http://cdss.state.co.us/onlineTools/Pages/ClimateStation.aspx,cfs,2739,10/1/90,4/1/98,7
1436,EPARANCO,9092960,"EAST FORK PARACHUTE CREEK NR ANVIL POINTS, CO.",USGS,5,39,GARFIELD,CO,243717.4,4382616.4,39.55498,-107.982867,User supplied,10/1/76,9/30/83,6/17/15,http://cdss.state.co.us/onlineTools/Pages/ClimateStation.aspx,cfs,2555,10/1/76,9/30/83,6
1437,PLANHECO,9095800,"PLATEAU CREEK NEAR HEIBERGER, CO.",USGS,5,72,MESA,CO,260468.8,4344579.4,39.217482,-107.774515,User supplied,5/1/58,9/30/64,6/17/15,http://cdss.state.co.us/onlineTools/Pages/ClimateStation.aspx,cfs,2344,5/1/58,9/30/64,6
1438,ATKCOLCO,9098500,"ATKINSON CREEK NEAR COLLBRAN, CO.",USGS,5,72,MESA,CO,249459.9,4332177,39.102764,-107.897299,User supplied,10/1/52,9/30/55,6/17/15,http://cdss.state.co.us/onlineTools/Pages/ClimateStation.aspx,cfs,1094,10/1/52,9/30/55,2
1439,COLNEPCO,9106000,"COLORADO RIVER NEAR PALISADE, CO.",USGS,5,72,MESA,CO,212488.3,4336223.5,39.127769,-108.325933,User supplied,4/1/02,9/30/33,6/17/15,http://cdss.state.co.us/onlineTools/Pages/ClimateStation.aspx,cfs,11505,4/1/02,9/30/33,#NUM!
1447,LEADURCO,9152650,"LEACH CREEK AT DURHAM, CO.",USGS,5,72,MESA,CO,187969.1,4333053.2,39.090819,-108.607607,User supplied,4/1/73,9/30/83,6/17/15,http://cdss.state.co.us/onlineTools/Pages/ClimateStation.aspx,cfs,3834,4/1/73,9/30/83,10
1448,COLUTACO,9163500,COLORADO RIVER NEAR COLORADO-UTAH STATE LINE,USGS,5,72,MESA,CO,151884,4339237.2,39.13276,-109.027055,User supplied,5/1/51,10/19/20,10/19/20,http://cdss.state.co.us/onlineTools/Pages/ClimateStation.aspx,cfs,25374,5/1/51,10/19/20,69
1512,COLGRACO,9011000,"COLORADO RIVER NEAR GRAND LAKE, CO.",USGS,5,51,GRAND,CO,427036.7,4452403.1,40.218879,-105.85752,User supplied,10/1/04,9/30/86,6/17/15,http://cdss.state.co.us/onlineTools/Pages/ClimateStation.aspx,cfs,29949,10/1/04,9/30/86,#NUM!
1513,RANDIFCO,9031900,RANCH CREEK DITCH NEAR FRASER COLO,USGS,5,51,GRAND,CO,435686.4,4415786.8,39.889717,-105.752244,User supplied,10/1/48,9/30/67,6/17/15,http://cdss.state.co.us/onlineTools/Pages/ClimateStation.aspx,cfs,6938,10/1/48,9/30/67,18
1514,RANPLUCO,9032001,RANCH C NR FRASER PLUS RANCH C DITCH COLO,USGS,5,51,GRAND,CO,434603.7,4422486.8,39.949995,-105.765571,User supplied,10/1/48,9/30/67,6/17/15,http://cdss.state.co.us/onlineTools/Pages/ClimateStation.aspx,cfs,6938,10/1/48,9/30/67,18
1515,SOFWATCO,9035840,"SO FK WILLIAMS FK AB TRIB NR PTARMIGAN PASS, CO",USGS,5,51,GRAND,CO,415794.3,4395321.4,39.7036,-105.982252,User supplied,10/1/84,9/30/87,6/17/15,http://cdss.state.co.us/onlineTools/Pages/ClimateStation.aspx,cfs,1094,10/1/84,9/30/87,2
1516,WILLEACO,9036000,"WILLIAMS FORK NEAR LEAL, CO.",USGS,5,51,GRAND,CO,409606.2,4409853,39.833875,-106.056408,User supplied,10/1/33,10/19/20,10/20/20,http://cdss.state.co.us/onlineTools/Pages/ClimateStation.aspx,cfs,31795,10/1/33,10/19/20,87
1517,ANTKRECO,9041100,"ANTELOPE CREEK NEAR KREMMLING, CO.",USGS,5,50,GRAND,CO,383156.8,4455360.2,40.240544,-106.373651,User supplied,10/1/55,9/30/68,6/17/15,http://cdss.state.co.us/onlineTools/Pages/ClimateStation.aspx,cfs,4748,10/1/55,9/30/68,12
1518,BEMHODCO,9044300,"BEMROSE-HOOSIER DIVERSION NEAR HOOSIER PASS, CO",USGS,5,36,SUMMIT,CO,407770.6,4359554.2,39.380544,-106.070853,User supplied,10/1/57,10/19/20,10/20/20,http://cdss.state.co.us/onlineTools/Pages/ClimateStation.aspx,cfs,23029,10/1/57,10/19/20,63
1519,CATAGRCO,9055500,"CATARACT CREEK AB GREEN MOUNTAIN RESERVOIR, CO.",USGS,5,36,SUMMIT,CO,389522.5,4411905.2,39.84999,-106.291433,User supplied,10/1/44,9/30/53,6/17/15,http://cdss.state.co.us/onlineTools/Pages/ClimateStation.aspx,cfs,3286,10/1/44,9/30/53,8
1520,HOMGOLCO,9064000,"HOMESTAKE CREEK AT GOLD PARK, CO.",USGS,5,37,EAGLE,CO,376591.7,4362761.7,39.405543,-106.433362,User supplied,10/1/47,10/19/20,10/20/20,http://cdss.state.co.us/onlineTools/Pages/ClimateStation.aspx,cfs,26682,10/1/47,10/19/20,73
1521,,9066300,"MIDDLE CREEK NEAR MINTURN, CO.",USGS,5,37,EAGLE,CO,381401.9,4389360.6,39.645828,-106.382261,User supplied,10/1/64,10/18/20,10/19/20,http://cdss.state.co.us/onlineTools/Pages/ClimateStation.aspx,cfs,20471,10/1/64,10/18/20,56
1522,EAGGYPCO,9070000,"EAGLE RIVER BELOW GYPSUM, CO.",USGS,5,37,EAGLE,CO,332380.8,4390672.4,39.64943,-106.953655,User supplied,10/1/46,10/19/20,10/20/20,http://cdss.state.co.us/onlineTools/Pages/ClimateStation.aspx,cfs,27047,10/1/46,10/19/20,74
1523,ROAASPCO,9073400,"ROARING FORK RIVER NEAR ASPEN, CO.",USGS,5,38,PITKIN,CO,344353.9,4338296.9,39.179988,-106.801983,User supplied,10/1/64,10/19/20,10/20/20,http://cdss.state.co.us/onlineTools/Pages/ClimateStation.aspx,cfs,20472,10/1/64,10/19/20,56
1524,FRYIVLCO,9077200,"FRYINGPAN RIVER NEAR IVANHOE LAKE, CO.",BOR,5,38,PITKIN,CO,367899,4345058,39.244793,-106.530823,User supplied,10/1/63,10/19/20,10/19/20,http://cdss.state.co.us/onlineTools/Pages/ClimateStation.aspx,cfs,20838,10/1/63,10/19/20,57
1525,CUNFENCO,9078140,"CUNNINGHAM CREEK FEEDER CANAL NEAR NORRIE, CO.",USGS,5,38,PITKIN,CO,367061.6,4355270.9,39.33666,-106.542537,User supplied,6/1/79,9/30/83,6/17/15,http://cdss.state.co.us/onlineTools/Pages/ClimateStation.aspx,cfs,1582,6/1/79,9/30/83,4
1526,LIMENTCO,9078900,"LIME CREEK NEAR TROUTVILLE, CO.",USGS,5,38,EAGLE,CO,362629.5,4366018.1,39.432769,-106.596149,User supplied,10/1/63,9/30/68,6/17/15,http://cdss.state.co.us/onlineTools/Pages/ClimateStation.aspx,cfs,1826,10/1/63,9/30/68,4
1527,FRYATHCO,9080000,"FRYINGPAN RIVER AT THOMASVILLE, CO.",USGS,5,38,PITKIN,CO,353111.1,4358451.2,39.363045,-106.705048,User supplied,3/1/15,9/30/20,6/17/15,http://cdss.state.co.us/onlineTools/Pages/ClimateStation.aspx,cfs,2040,3/1/15,9/30/20,5
1528,FRYMERCO,9080100,"FRYINGPAN RIVER AT MEREDITH, CO.",DWR,5,38,PITKIN,CO,350740.6,4358434.5,39.362484,-106.732536,User supplied,10/1/10,10/19/20,10/19/20,http://cdss.state.co.us/onlineTools/Pages/ClimateStation.aspx,cfs,40196,10/1/10,10/19/20,10
1529,FRYARUCO,9080200,"FRYINGPAN RIVER AT RUEDI, CO.",USGS,5,38,PITKIN,CO,343270.9,4358458.1,39.361378,-106.819216,User supplied,10/1/59,9/30/64,6/17/15,http://cdss.state.co.us/onlineTools/Pages/ClimateStation.aspx,cfs,1826,10/1/59,9/30/64,4
1530,WELKNECO,9086000,"WEST ELK CREEK NEAR NEW CASTLE, CO",USGS,5,39,GARFIELD,CO,274657.3,4394027.3,39.666372,-107.62702,User supplied,10/1/90,9/30/97,6/17/15,http://cdss.state.co.us/onlineTools/Pages/ClimateStation.aspx,cfs,2556,10/1/90,9/30/97,6
1531,,9092000,"RIFLE CREEK NEAR RIFLE, CO.",USGS,5,39,GARFIELD,CO,262797.4,4389229.3,39.619983,-107.763414,User supplied,10/1/39,9/30/64,6/17/15,http://cdss.state.co.us/onlineTools/Pages/ClimateStation.aspx,cfs,9131,10/1/39,9/30/64,24
1532,,9093500,"PARACHUTE CREEK AT PARACHUTE, CO.",USGS,5,39,GARFIELD,CO,236720.2,4371521.7,39.453042,-108.059812,User supplied,4/1/21,9/30/82,6/17/15,http://cdss.state.co.us/onlineTools/Pages/ClimateStation.aspx,cfs,22462,4/1/21,9/30/82,#NUM!
1533,BUZCOLCO,9097500,"BUZZARD CREEK NEAR COLLBRAN, CO",USGS,5,72,MESA,CO,254087.9,4350857.9,39.272209,-107.850631,User supplied,10/1/21,9/30/80,6/17/15,http://cdss.state.co.us/onlineTools/Pages/ClimateStation.aspx,cfs,21549,10/1/21,9/30/80,#NUM!
1534,BIGUPPCO,9099500,BIG CREEK AT UPPER STATION NEAR COLLBRAN,DWR,5,72,MESA,CO,245154.8,4340652,39.177785,-107.950206,User supplied,10/1/45,10/19/20,10/20/20,http://cdss.state.co.us/onlineTools/Pages/ClimateStation.aspx,cfs,27412,10/1/45,10/19/20,75
1535,PLACAMCO,9105000,"PLATEAU CREEK NEAR CAMEO, CO",USGS,5,72,MESA,CO,217691,4342242.7,39.183611,-108.268333,GPS,5/1/36,10/19/20,10/20/20,http://cdss.state.co.us/onlineTools/Pages/ClimateStation.aspx,cfs,30852,5/1/36,10/19/20,84
1604,CLFOFDCO,,"CLEAR FORK FEEDER DITCH NEAR CLEAR FORK, CO",DWR,5,45,MESA,CO,290394,4348204,39.257856,-107.42933,GPS,6/1/39,10/19/20,10/20/20,http://cdss.state.co.us/onlineTools/Pages/ClimateStation.aspx,cfs,29726,6/1/39,10/19/20,81
1607,CUNCANCO,,MIDDLE CUNNINGHAM CREEK FEEDER CANAL NR.,DWR,5,38,PITKIN,CO,366207.9,4354391,39.328602,-106.552268,User supplied,10/1/78,9/30/79,,http://cdss.state.co.us/onlineTools/Pages/ClimateStation.aspx,cfs,364,10/1/78,9/30/79,0
1618,EURDITCO,9012000,EUREKA DITCH,DWR,5,51,GRAND,CO,438203.1,4465038,40.333601,-105.72752,User supplied,6/1/44,9/30/96,6/15/04,http://cdss.state.co.us/onlineTools/Pages/ClimateStation.aspx,cfs,19114,6/1/44,9/30/96,52
1622,FRAJDICO,,FRASER-JIM CREEK DITCH AT FLUME NEAR,DWR,5,51,GRAND,CO,435231.7,4415420.8,39.886385,-105.757518,User supplied,4/1/38,9/30/82,,http://cdss.state.co.us/onlineTools/Pages/ClimateStation.aspx,cfs,16253,4/1/38,9/30/82,44
1623,FRAWPOCO,,"FRASER RIVER ABOVE WEST PORTAL, CO",DWR,5,51,GRAND,CO,435668.6,4410915.7,39.845831,-105.751964,User supplied,8/1/34,9/30/37,,http://cdss.state.co.us/onlineTools/Pages/ClimateStation.aspx,cfs,1156,8/1/34,9/30/37,3
1624,GORMINCO,,GORE CREEK AT UPPER STATION  NEAR MINTUR,DWR,5,37,EAGLE,CO,390307.9,4387008.4,39.625821,-106.278097,User supplied,10/1/63,9/30/66,,http://cdss.state.co.us/onlineTools/Pages/ClimateStation.aspx,cfs,1095,10/1/63,9/30/66,2
1651,MONCRKCO,,MONTE CRISTO CREEK BELOW DIV       ERSIO,DWR,5,36,SUMMIT,CO,407722.9,4359585,39.380823,-106.071421,User supplied,10/1/53,9/30/56,,http://cdss.state.co.us/onlineTools/Pages/ClimateStation.aspx,cfs,1095,10/1/53,9/30/56,2
1666,OWECRKCO,,OWENS CREEK DITCH DIVERSION TO WE,DWR,5,72,MESA,CO,276547.8,4339381.8,39.174985,-107.586738,User supplied,10/1/69,9/30/70,,http://cdss.state.co.us/onlineTools/Pages/ClimateStation.aspx,cfs,364,10/1/69,9/30/70,0
1681,RACODICO,,RABER-COAL DIT. @ DVR. A. KANNAH CRK.,DWR,5,72,MESA,CO,222658.1,4348361,39.24026,-108.213436,User supplied,4/1/58,7/31/67,,http://cdss.state.co.us/onlineTools/Pages/ClimateStation.aspx,cfs,3408,4/1/58,7/31/67,9
1682,RANCRKCO,,"RANCH CREEK DITCH NEAR WINTER PARK, CO",DWR,5,51,GRAND,CO,435709.7,4415755.7,39.889439,-105.751961,User supplied,5/1/49,9/30/82,,http://cdss.state.co.us/onlineTools/Pages/ClimateStation.aspx,cfs,12205,5/1/49,9/30/82,33
1683,RFCMERCO,9080300,"ROCKY FORK CREEK NEAR MEREDITH, CO.",BOR,5,38,PITKIN,CO,343155.4,4358477.5,39.361538,-106.820567,User supplied,10/1/68,10/19/20,10/20/20,http://cdss.state.co.us/onlineTools/Pages/ClimateStation.aspx,cfs,19011,10/1/68,10/19/20,52
1689,ROABMCCO,,ROARING FORK RIVER BELOW MAROON CREEK NEAR ASPEN,USGS,5,38,PITKIN,CO,339555.7,4343300.5,39.224181,-106.858703,Digitized off map,11/1/88,5/11/18,6/26/19,http://cdss.state.co.us/onlineTools/Pages/ClimateStation.aspx,cfs,10783,11/1/88,5/11/18,29
1707,THOMUPCO,,"THOMPSON CREEK FEEDER DITCH NEAR HAYSTACK, CO",DWR,5,45,PITKIN,CO,289700,4353333,39.303863,-107.438968,User supplied,5/1/39,7/24/20,7/24/20,http://cdss.state.co.us/onlineTools/Pages/ClimateStation.aspx,cfs,29670,5/1/39,7/24/20,81
1712,VASCANCO,,"VASQUEZ CANAL NEAR WINTER PARK, CO",DWR,5,51,GRAND,CO,434236.6,4415737.7,39.889164,-105.769186,User supplied,10/1/44,9/30/57,,http://cdss.state.co.us/onlineTools/Pages/ClimateStation.aspx,cfs,4747,10/1/44,9/30/57,12
1713,VASQD1CO,,"VASQUEZ DITCH NO.1 NEAR WINTER PARK, CO",DWR,5,51,GRAND,CO,434236.6,4415737.7,39.889164,-105.769186,User supplied,10/1/57,9/30/82,,http://cdss.state.co.us/onlineTools/Pages/ClimateStation.aspx,cfs,9130,10/1/57,9/30/82,24
1714,VASQD2CO,,"VASQUEZ DITCH NO.2 NEAR WINTER PARK, CO",DWR,5,51,GRAND,CO,430698.6,4415860.7,39.88999,-105.810576,User supplied,7/1/58,9/30/65,,http://cdss.state.co.us/onlineTools/Pages/ClimateStation.aspx,cfs,2648,7/1/58,9/30/65,7
1715,VASQD3CO,,"VASQUEZ DITCH NO.3 NEAR WINTER PARK, CO",DWR,5,51,GRAND,CO,429939.5,4413370.7,39.867495,-105.819186,User supplied,7/1/58,9/30/65,,http://cdss.state.co.us/onlineTools/Pages/ClimateStation.aspx,cfs,2648,7/1/58,9/30/65,7
1723,WUREXDCO,,WURTZ EXTENSION DITCH NEAR TENNESSEE PASS,DWR,5,37,EAGLE,CO,383461.9,4361453.1,39.394716,-106.35337,User supplied,10/1/67,9/30/90,,http://cdss.state.co.us/onlineTools/Pages/ClimateStation.aspx,cfs,8400,10/1/67,9/30/90,22
1947,RIFRGRCO,,RIFLE CREEK BELOW RIFLE GAP RESERVOIR,BOR,5,39,GARFIELD,CO,263121.2,4389920,39.626291,-107.75989,User supplied,10/15/85,10/19/20,10/20/20,http://cdss.state.co.us/onlineTools/Pages/ClimateStation.aspx,cfs,12788,10/15/85,10/19/20,35
1967,GRSVALCO,,"GRASS VALLEY CANAL NEAR RIFLE FALLS, CO",DWR,5,39,GARFIELD,CO,268566.2,4395250,39.675752,-107.698383,User supplied,4/3/86,10/19/20,10/20/20,http://cdss.state.co.us/onlineTools/Pages/ClimateStation.aspx,cfs,12618,4/3/86,10/19/20,34
1980,TROKRECO,,TROUBLESOME CREEK NEAR KREMMLING,NCWCD,5,50,GRAND,CO,390420.2,4446122.3,40.158317,-106.286712,User supplied,6/16/94,5/21/01,9/18/13,http://cdss.state.co.us/onlineTools/Pages/ClimateStation.aspx,cfs,2531,6/16/94,5/21/01,6
1988,HOMRESCO,,HOMESTAKE RESERVOIR,COSP,5,37,EAGLE,CO,373976.8,4358744.5,39.36898,-106.462977,User supplied,8/22/91,12/30/99,9/18/13,http://cdss.state.co.us/onlineTools/Pages/ClimateStation.aspx,cfs,3052,8/22/91,12/30/99,8
2015,GHICANCO,,"GOVERNMENT HIGHLINE CANAL NEAR CAMEO, CO",DWR,5,72,MESA,CO,214866.1,4341176,39.173099,-108.30055,User supplied,4/10/86,10/19/20,10/20/20,http://cdss.state.co.us/onlineTools/Pages/ClimateStation.aspx,cfs,12611,4/10/86,10/19/20,34
2016,ORCHIDCO,,ORCHARD MESA IRRIGATION DISTRICT ABOVE PALISADE,DWR,5,72,MESA,CO,212612,4334134,39.109008,-108.323617,User supplied,2/1/96,10/19/20,10/20/20,http://cdss.state.co.us/onlineTools/Pages/ClimateStation.aspx,cfs,9027,2/1/96,10/19/20,24
2017,GRDVALCO,,"GRAND VALLEY CANAL NEAR PALISADE, CO",DWR,5,72,MESA,CO,210139,4333318,39.100849,-108.351823,Digitized off map,3/24/86,10/19/20,10/20/20,http://cdss.state.co.us/onlineTools/Pages/ClimateStation.aspx,cfs,12628,3/24/86,10/19/20,34
2045,WILCANCO,,WILLOW CREEK PUMP CANAL,BOR,5,51,GRAND,CO,423148,4444119,40.143906,-105.902232,Digitized off map,5/8/86,10/19/20,10/20/20,http://cdss.state.co.us/onlineTools/Pages/ClimateStation.aspx,cfs,12583,5/8/86,10/19/20,34
2048,FRAWNDCO,,FRASER RIVER NEAR GRANDBY,NCWCD,5,51,GRAND,CO,417149.4,4438937.2,40.096655,-105.971984,User supplied,10/30/89,4/21/03,9/18/13,http://cdss.state.co.us/onlineTools/Pages/ClimateStation.aspx,cfs,4921,10/30/89,4/21/03,13
2050,COLCHICO,,COLORADO RIVER BELOW WINDY GAP AT CHIMNEY ROCK,NCWCD,5,51,GRAND,CO,414465.4,4440262.1,40.108322,-106.003643,User supplied,6/12/92,2/3/03,9/18/13,http://cdss.state.co.us/onlineTools/Pages/ClimateStation.aspx,cfs,3888,6/12/92,2/3/03,10
2052,BLUSWACO,,BLUE RIVER AT FARMERS CORNER BELOW SWAN RIVER,USGS,5,36,SUMMIT,CO,409852,4380126.2,39.566104,-106.049482,User supplied,11/17/95,9/30/99,9/18/13,http://cdss.state.co.us/onlineTools/Pages/ClimateStation.aspx,cfs,1413,11/17/95,9/30/99,3
2075,COLPARCO,WS1854,COLORADO RIVER NEAR PARSHALL BELOW W.F. CONFLUENCE,NCWCD,5,51,GRAND,CO,398298.2,4435404.2,40.062759,-106.192527,User supplied,7/20/95,10/19/20,10/20/20,http://cdss.state.co.us/onlineTools/Pages/ClimateStation.aspx,cfs,9223,7/20/95,10/19/20,25
2078,COLKBDCO,WS1855,COLORADO RIVER AT K BARGER DITCH NEAR KREMMLING,NCWCD,5,51,GRAND,CO,390181.2,4434500.2,40.053598,-106.28753,User supplied,6/16/92,10/19/20,10/20/20,http://cdss.state.co.us/onlineTools/Pages/ClimateStation.aspx,cfs,10352,6/16/92,10/19/20,28
2138,MUDKRECO,9041400,"MUDDY CRK BLW WOLFORD MTN RESER. NR KREMMLING, CO",USGS,5,50,GRAND,CO,379497.4,4440768.4,40.108596,-106.413921,User supplied,6/3/93,10/19/20,10/20/20,http://cdss.state.co.us/onlineTools/Pages/ClimateStation.aspx,cfs,10000,6/3/93,10/19/20,27
2139,FREGULCO,9046530,"FRENCH GULCH AT BRECKENRIDGE, CO",USGS,5,36,SUMMIT,CO,410164.2,4372013.2,39.493042,-106.044741,User supplied,10/1/95,9/30/05,6/17/15,http://cdss.state.co.us/onlineTools/Pages/ClimateStation.aspx,cfs,3652,10/1/95,9/30/05,9
2140,GORCRECO,9066510,"GORE CREEK AT MOUTH NEAR MINTURN, CO",USGS,5,37,EAGLE,CO,375711.8,4385410.5,39.60943,-106.447808,User supplied,10/1/95,10/19/20,10/20/20,http://cdss.state.co.us/onlineTools/Pages/ClimateStation.aspx,cfs,9150,10/1/95,10/19/20,25
2141,DRYFORCO,9095300,"DRY FORK AT UPPER STATION, NEAR DE BEQUE CO.",USGS,5,70,GARFIELD,CO,214190.3,4363611.8,39.374708,-108.317879,User supplied,10/1/95,9/30/04,6/17/15,http://cdss.state.co.us/onlineTools/Pages/ClimateStation.aspx,cfs,3287,10/1/95,9/30/04,8
2200,BLUNINCO,,BLUE RIVER AT HIGHWAY 9 BRIDGE BELOW BRECKENRIDGE,DWR,5,36,SUMMIT,CO,410442,4377148.5,39.539337,-106.042213,User supplied,10/1/96,10/19/20,10/20/20,http://cdss.state.co.us/onlineTools/Pages/ClimateStation.aspx,cfs,8784,10/1/96,10/19/20,24
2223,LAKNEDCO,9067200,"LAKE CREEK NEAR EDWARDS, CO",USGS,5,37,EAGLE,CO,361932,4389870.1,39.647486,-106.6092,User supplied,10/1/93,10/19/20,10/19/20,http://cdss.state.co.us/onlineTools/Pages/ClimateStation.aspx,cfs,9880,10/1/93,10/19/20,27
2245,SNAKEYCO,,SNAKE RIVER AT KEYSTONE SKI AREA,DWR,5,36,SUMMIT,CO,418298.8,4384542,39.606735,-105.951703,User supplied,10/10/97,10/19/20,10/19/20,http://cdss.state.co.us/onlineTools/Pages/ClimateStation.aspx,cfs,8410,10/10/97,10/19/20,23
2276,ROAEMMCO,9081000,"ROARING FORK RIVER NEAR EMMA, CO",USGS,5,38,EAGLE,CO,320492.5,4360276.6,39.373317,-107.083937,User supplied,4/1/98,10/19/20,10/20/20,http://cdss.state.co.us/onlineTools/Pages/ClimateStation.aspx,cfs,8237,4/1/98,10/19/20,22
2291,COTPIPCO,,COTTONWOOD PIPELINE BELOW BONHAM & COTTONWOOD RESERVOIR,DWR,5,72,MESA,CO,243487.6,4334900.5,39.125531,-107.967297,User supplied,10/29/98,5/14/12,5/2/14,http://cdss.state.co.us/onlineTools/Pages/ClimateStation.aspx,cfs,4946,10/29/98,5/14/12,13
2299,ERIRGRCO,,EAST RIFLE CREEK ABOVE RIFLE GAP RESERVOIR,BOR,5,39,GARFIELD,CO,265491.5,4390790,39.634774,-107.732604,User supplied,7/6/99,10/19/20,10/20/20,http://cdss.state.co.us/onlineTools/Pages/ClimateStation.aspx,cfs,7776,7/6/99,10/19/20,21
2305,,9025300,"ELK CREEK AT UPPER STATION, NEAR FRASER, CO",USGS,5,51,GRAND,CO,428822.2,4415816.8,39.889438,-105.832523,User supplied,10/1/96,10/18/20,10/19/20,http://cdss.state.co.us/onlineTools/Pages/ClimateStation.aspx,cfs,8783,10/1/96,10/18/20,24
2332,OWECRECO,,"OWENS CREEK DITCH NEAR RENO MOUNTAIN, CO",DWR,5,72,MESA,CO,276758.9,4346781.8,39.241645,-107.586732,User supplied,6/21/96,10/19/20,10/20/20,http://cdss.state.co.us/onlineTools/Pages/ClimateStation.aspx,cfs,8886,6/21/96,10/19/20,24
2348,SNOCRECO,9077000,SNOWMASS CREEK,DWR,5,38,PITKIN,CO,329007.8,4341830,39.20893,-106.98046,User supplied,10/31/97,10/19/20,10/19/20,http://cdss.state.co.us/onlineTools/Pages/ClimateStation.aspx,cfs,8389,10/31/97,10/19/20,22
2360,RANMEACO,9033100,"RANCH CREEK BLW MEADOW CR NR TABERNASH, CO",USGS,5,51,GRAND,CO,429313,4427975,39.999006,-105.828094,User supplied,5/1/97,10/13/20,10/16/20,http://cdss.state.co.us/onlineTools/Pages/ClimateStation.aspx,cfs,8566,5/1/97,10/13/20,23
2363,VIDLERCO,,"VIDLER TUNNEL, WEST PORTAL",DWR,5,36,SUMMIT,CO,432003.4,4386127.2,39.622213,-105.79225,User supplied,6/23/98,7/21/98,9/18/13,http://cdss.state.co.us/onlineTools/Pages/ClimateStation.aspx,cfs,28,6/23/98,7/21/98,0
2384,,4.00E+14,"MEADOW CREEK AT MOUTH NR TABERNASH, CO",USGS,5,51,GRAND,CO,430055.7,4428570.5,40.004432,-105.819461,User supplied,6/1/97,9/30/99,6/17/15,http://cdss.state.co.us/onlineTools/Pages/ClimateStation.aspx,cfs,851,6/1/97,9/30/99,2
2402,WESRIFCO,,WEST RIFLE CREEK ABOVE RIFLE GAP RESERVOIR,BOR,5,39,GUNNISON,CO,261601.3,4391909,39.64377,-107.778297,User supplied,8/15/99,10/19/20,10/20/20,http://cdss.state.co.us/onlineTools/Pages/ClimateStation.aspx,cfs,7736,8/15/99,10/19/20,21
2411,ALSOUTCO,,ALSBURY RESERVOIR (OUTFLOW),DWR,5,45,,CO,286087.3,4356681.5,39.333127,-107.481899,User supplied,1/17/00,10/19/20,10/20/20,http://cdss.state.co.us/onlineTools/Pages/ClimateStation.aspx,cfs,7581,1/17/00,10/19/20,20
2414,HOMOUTCO,,HOMESTAKE RESERVOIR (OUTFLOW),COSP,5,37,EAGLE,CO,374320.9,4358480.1,39.366647,-106.458926,User supplied,1/2/00,9/30/08,9/18/13,http://cdss.state.co.us/onlineTools/Pages/ClimateStation.aspx,cfs,3194,1/2/00,9/30/08,8
2424,FRATABCO,9033300,FRASER RIVER BLW CROOKED CR AT TABERNASH CO,USGS,5,51,GRAND,CO,427598.5,4428866.7,40.006892,-105.848272,User supplied,10/1/98,10/19/20,10/20/20,http://cdss.state.co.us/onlineTools/Pages/ClimateStation.aspx,cfs,8054,10/1/98,10/19/20,22
2429,BULLCRCO,,BULL CREEK ABOVE SOUTH SIDE CANAL NR MOLINA,DWR,5,72,MESA,CO,236562.5,4336303.7,39.136091,-108.047846,User supplied,5/14/01,10/19/20,10/20/20,http://cdss.state.co.us/onlineTools/Pages/ClimateStation.aspx,cfs,7098,5/14/01,10/19/20,19
2430,PLABCOCO,9097900,"PLATEAU CREEK BELOW COLLBRAN, CO",USGS,5,72,MESA,CO,243543.3,4347585.7,39.239701,-107.971459,GPS,5/1/03,10/31/09,6/17/15,http://cdss.state.co.us/onlineTools/Pages/ClimateStation.aspx,cfs,2375,5/1/03,10/31/09,6
2436,GORREDCO,9066325,"GORE CREEK ABV RED SANDSTONE CREEK AT VAIL, CO",USGS,5,37,EAGLE,CO,380321.2,4388853.1,39.641097,-106.394752,User supplied,10/1/99,10/19/20,10/19/20,http://cdss.state.co.us/onlineTools/Pages/ClimateStation.aspx,cfs,7689,10/1/99,10/19/20,21
2437,CRYCARCO,9083800,"CRYSTAL RIVER BELOW CARBONDALE, CO",USGS,5,38,GARFIELD,CO,307976.4,4364432,39.408039,-107.23033,User supplied,6/1/00,9/30/10,6/17/15,http://cdss.state.co.us/onlineTools/Pages/ClimateStation.aspx,cfs,3773,6/1/00,9/30/10,10
2755,EAGCLICO,9061600,"EAST FORK EAGLE RIVER NEAR CLIMAX, CO",USGS,5,37,EAGLE,CO,392408.2,4363050.7,39.410265,-106.249747,GPS,7/1/02,10/19/20,10/20/20,http://cdss.state.co.us/onlineTools/Pages/ClimateStation.aspx,cfs,6685,7/1/02,10/19/20,18
2770,GREELCCO,9056500,"ELLIOTT CREEK FEEDER CANAL TO GREEN MTN RES, CO",USGS,5,36,SUMMIT,CO,386209.8,4414589.2,39.873725,-106.330597,User supplied,5/13/03,10/19/20,10/20/20,http://cdss.state.co.us/onlineTools/Pages/ClimateStation.aspx,cfs,6369,5/13/03,10/19/20,17
2775,EASINLET,WS1920,EAST INLET CREEK,NCWCD,5,51,GRAND,CO,431849.3,4454361.7,40.236923,-105.801166,User supplied,6/29/07,10/19/20,10/20/20,http://cdss.state.co.us/onlineTools/Pages/ClimateStation.aspx,cfs,4861,6/29/07,10/19/20,13
2776,WILABVCO,WS1930,WILLOW CREEK ABOVE WILLOW CREEK RESERVOIR,NCWCD,5,51,GRAND,CO,416437.3,4445503.5,40.155733,-105.981172,User supplied,7/1/03,10/19/20,10/20/20,http://cdss.state.co.us/onlineTools/Pages/ClimateStation.aspx,cfs,6320,7/1/03,10/19/20,17
2777,NORINLET,WS1921,NORTH INLET CREEK,NCWCD,5,51,GRAND,CO,430466.4,4431558,40.031378,-105.814964,User supplied,7/1/03,10/19/20,10/20/20,http://cdss.state.co.us/onlineTools/Pages/ClimateStation.aspx,cfs,6320,7/1/03,10/19/20,17
2778,COLGRAND,WS1922,COLORADO RIVER AT GRAND LAKE (NORTH FORK),NCWCD,5,51,GRAND,CO,427023.6,4452419.9,40.219031,-105.857675,User supplied,7/1/03,10/19/20,10/20/20,http://cdss.state.co.us/onlineTools/Pages/ClimateStation.aspx,cfs,6320,7/1/03,10/19/20,17
2789,GHICANC2,,TEMPORARY GOVERNMENT HIGHLINE CANAL,DWR,5,72,MESA,CO,216341.2,4342258,39.183315,-108.283956,,8/10/04,11/17/04,9/18/13,http://cdss.state.co.us/onlineTools/Pages/ClimateStation.aspx,cfs,99,8/10/04,11/17/04,0
2791,PTMDGPCO,,"PORTER THREE MILE DITCH AT GARFIELD PASS, CO",DWR,5,45,GARFIELD,CO,292045.3,4373354.5,39.484673,-107.418012,User supplied,4/26/04,10/19/20,10/20/20,http://cdss.state.co.us/onlineTools/Pages/ClimateStation.aspx,cfs,6020,4/26/04,10/19/20,16
2792,PTMDTPCO,,"PORTER THREE MILE DITCH AT THREE MILE PASS, CO",DWR,5,45,GARFIELD,CO,294085.5,4373952,39.490548,-107.394485,User supplied,5/3/04,7/20/20,7/20/20,http://cdss.state.co.us/onlineTools/Pages/ClimateStation.aspx,cfs,5922,5/3/04,7/20/20,16
2812,SOCAMECO,,"SOUTHSIDE CANAL AT MESA, CO",DWR,5,72,MESA,CO,227797,4332668,39.10069,-108.147671,User supplied,5/28/04,10/19/20,10/20/20,http://cdss.state.co.us/onlineTools/Pages/ClimateStation.aspx,cfs,5988,5/28/04,10/19/20,16
2831,BLUPENCO,3.93E+14,"BLUE RIVER ABV PENNSYLVANIA CR NR BLUE RIVER, CO",USGS,5,36,SUMMIT,CO,410251.7,4364983.8,39.429722,-106.042778,User supplied,4/1/05,10/31/13,6/15/17,http://cdss.state.co.us/onlineTools/Pages/ClimateStation.aspx,cfs,3135,4/1/05,10/31/13,8
2909,MULTRICO,,MULTA-TRINA DITCH NEAR SILT CO,DWR,5,45,GARFIELD,CO,274136,4371037,39.459302,-107.625268,Digitized off map,4/4/06,10/19/20,10/20/20,http://cdss.state.co.us/onlineTools/Pages/ClimateStation.aspx,cfs,5312,4/4/06,10/19/20,14
2933,,9046400,"INDIANA CREEK ABOVE MOUTH AT BLUE RIVER, CO",USGS,5,36,Summit,CO,411926.2,4367153.7,39.449453,-106.023625,GPS,6/1/05,7/31/05,6/17/15,http://cdss.state.co.us/onlineTools/Pages/ClimateStation.aspx,cfs,60,6/1/05,7/31/05,0
2987,EAGMILCO,3.94E+14,"EAGLE RIVER BELOW MILK CREEK NEAR WOLCOTT, CO",USGS,5,37,EAGLE,CO,352047.2,4396439.6,39.705,-106.725833,GPS,5/1/06,10/19/20,10/20/20,http://cdss.state.co.us/onlineTools/Pages/ClimateStation.aspx,cfs,5285,5/1/06,10/19/20,14
2993,CRYDOWCO,,CRYSTAL RIVER AT DOW FISH HATCHERY AB CARBONDALE,DWR,5,38,PITKIN,CO,310111,4360980,39.377436,-107.204587,Digitized off map,4/1/07,10/19/20,10/19/20,http://cdss.state.co.us/onlineTools/Pages/ClimateStation.aspx,cfs,4950,4/1/07,10/19/20,13
2994,ROAFRYCO,,ROARING FORK RIVER AB FRYINGPAN RIVER NR BASALT,DWR,5,38,PITKIN,CO,325190,4358820,39.36116,-107.02906,User supplied,4/1/07,9/30/12,5/15/13,http://cdss.state.co.us/onlineTools/Pages/ClimateStation.aspx,cfs,2009,4/1/07,9/30/12,5
3005,WGPBPFCO,WS1931,WINDY GAP BYPASS FLUME,NCWCD,5,51,GRAND,CO,,,,,,4/27/07,10/19/20,10/19/20,http://cdss.state.co.us/onlineTools/Pages/ClimateStation.aspx,cfs,4924,4/27/07,10/19/20,13
3198,,9067005,"EAGLE RIVER AT AVON, CO.",USGS,5,37,EAGLE,CO,369338.6,4387983,39.631659,-106.522538,User supplied,10/1/88,9/30/99,6/17/15,http://cdss.state.co.us/onlineTools/Pages/ClimateStation.aspx,cfs,4016,10/1/88,9/30/99,10
3538,,9014050,"GRAND LAKE OUTLET BLW CHIPMUNK LN AT GRAND LK, CO",USGS,5,51,GRAND,CO,429505,4455403,40.246116,-105.828847,User supplied,5/1/10,9/30/20,10/16/20,http://cdss.state.co.us/onlineTools/Pages/ClimateStation.aspx,cfs,3805,5/1/10,9/30/20,10
3539,,9078475,"LAST CHANCE CREEK NEAR NORRIE, CO",USGS,5,38,PITKIN,CO,357251.3,4356247.8,39.343896,-106.656542,User supplied,5/1/09,9/30/20,10/16/20,http://cdss.state.co.us/onlineTools/Pages/ClimateStation.aspx,cfs,4170,5/1/09,9/30/20,11
3540,,9079450,"LIME CREEK NEAR THOMASVILLE, CO",USGS,5,38,PITKIN,CO,354810.8,4358127.3,39.360414,-106.685252,GPS,5/1/09,9/30/20,10/16/20,http://cdss.state.co.us/onlineTools/Pages/ClimateStation.aspx,cfs,4170,5/1/09,9/30/20,11
3594,,9073721,"HUNTER CREEK CONDUIT BYPASS NEAR ASPEN, CO",USGS,5,38,PITKIN,CO,354913.7,4341156.2,39.207573,-106.6804,User supplied,5/1/09,8/24/20,9/16/20,http://cdss.state.co.us/onlineTools/Pages/ClimateStation.aspx,cfs,4133,5/1/09,8/24/20,11
3595,,9073791,"MIDWAY CREEK CONDUIT BYPASS NEAR ASPEN, CO",USGS,5,38,PITKIN,CO,354404,4339329.3,39.191031,-106.685911,User supplied,5/1/09,8/24/20,9/16/20,http://cdss.state.co.us/onlineTools/Pages/ClimateStation.aspx,cfs,4133,5/1/09,8/24/20,11
3596,,9073891,"NO NAME CREEK CONDUIT BYPASS NEAR ASPEN, CO",USGS,5,38,PITKIN,CO,351455.5,4338560.7,39.183615,-106.719864,User supplied,5/1/09,8/24/20,9/16/20,http://cdss.state.co.us/onlineTools/Pages/ClimateStation.aspx,cfs,4133,5/1/09,8/24/20,11
3598,,9078141,"NORTH CUNNINGHAM CREEK CONDUIT BYPASS NR NORRIE,CO",USGS,5,38,PITKIN,CO,366915.4,4355196.6,39.335971,-106.544227,User supplied,5/1/09,8/25/20,9/16/20,http://cdss.state.co.us/onlineTools/Pages/ClimateStation.aspx,cfs,4134,5/1/09,8/25/20,11
3602,BIGLKDCO,,BIG LAKE DITCH NEAR WILLIAMS FORK RESERVOIR,DWB,5,51,GRAND,CO,400843.6,4425325,39.972277,-106.161152,GPS,10/28/11,10/19/20,10/20/20,http://cdss.state.co.us/onlineTools/Pages/ClimateStation.aspx,cfs,3279,10/28/11,10/19/20,8
3603,,9022100,"FRASER-JIM DITCH NEAR WINTER PARK, CO",USGS,5,51,GRAND,CO,435232.3,4415451.6,39.886664,-105.757521,User supplied,10/1/43,9/30/67,6/17/15,http://cdss.state.co.us/onlineTools/Pages/ClimateStation.aspx,cfs,8765,10/1/43,9/30/67,23
3700,HUNATACO,9074500,"HUNTER CREEK AT ASPEN, CO",USGS,5,38,PITKIN,CO,342928.8,4340201.8,39.196889,-106.818917,User supplied,10/1/09,10/1/20,10/16/20,http://cdss.state.co.us/onlineTools/Pages/ClimateStation.aspx,cfs,4018,10/1/09,10/1/20,11
3716,CASCRECO,9075400,"CASTLE CREEK AT ASPEN, CO",USGS,5,38,PITKIN,CO,341648.1,4339888.3,39.193833,-106.833667,User supplied,5/1/12,10/31/16,8/15/19,http://cdss.state.co.us/onlineTools/Pages/ClimateStation.aspx,cfs,1644,5/1/12,10/31/16,4
3750,FRATBRCO,9027100,"FRASER RIVER AT TABERNASH, CO",USGS,5,51,GRAND,CO,429159.9,4427013.9,39.990333,-105.829778,User supplied,5/1/11,10/19/20,10/20/20,http://cdss.state.co.us/onlineTools/Pages/ClimateStation.aspx,cfs,3459,5/1/11,10/19/20,9
3751,,9034000,"FRASER RIVER AT GRANBY, CO.",USGS,5,51,GRAND,CO,418557.2,4437657.9,40.085271,-105.955307,User supplied,8/1/04,12/31/55,6/17/15,http://cdss.state.co.us/onlineTools/Pages/ClimateStation.aspx,cfs,18779,8/1/04,12/31/55,#NUM!
3752,,9034500,"COLORADO RIVER AT HOT SULPHUR SPRINGS, CO.",USGS,5,51,GRAND,CO,407234,4437572,40.083325,-106.088088,User supplied,10/1/04,9/30/94,6/17/15,http://cdss.state.co.us/onlineTools/Pages/ClimateStation.aspx,cfs,32871,10/1/04,9/30/94,#NUM!
3928,EAGAVOCO,9067020,"EAGLE R BLW WASTEWATER TREATMENT PLANT AT AVON, CO",USGS,5,37,EAGLE,CO,368489.3,4388368.9,39.634998,-106.532501,User supplied,10/1/99,10/19/20,10/20/20,http://cdss.state.co.us/onlineTools/Pages/ClimateStation.aspx,cfs,7689,10/1/99,10/19/20,21
3929,TCBWTCCO,,"TENMILE CREEK BELOW WEST TENMILE CREEK, CO",DWR,5,36,SUMMIT,CO,401832.3,4374006.5,39.51009,-106.141928,User supplied,11/15/12,10/19/20,10/20/20,http://cdss.state.co.us/onlineTools/Pages/ClimateStation.aspx,cfs,2895,11/15/12,10/19/20,7
7951,COLCATCO,9060799,"COLORADO RIVER AT CATAMOUNT BRIDGE, CO",USGS,5,52,,CO,343394.2,4417274.5,39.891084,-106.831694,Digitized off map,10/21/16,10/19/20,10/20/20,http://cdss.state.co.us/onlineTools/Pages/ClimateStation.aspx,cfs,1459,10/21/16,10/19/20,3
8555,CRYNETCO,,CRYSTAL RIVER BELOW NETTLE CREEK,RFC,5,38,,CO,309060,4352232,39.298436,-107.214292,GPS,10/29/18,7/17/19,7/17/19,http://cdss.state.co.us/onlineTools/Pages/ClimateStation.aspx,cfs,261,10/29/18,7/17/19,0
8559,CRYTHOCO,,CRYSTAL RIVER ABOVE THOMAS CREEK,RFC,5,38,,CO,309726,4357883,39.349465,-107.208175,GPS,10/24/18,1/1/19,6/12/19,http://cdss.state.co.us/onlineTools/Pages/ClimateStation.aspx,cfs,69,10/24/18,1/1/19,0
8560,CRYCRMCO,,CRYSTAL RIVER AT COLORADO ROCKY MOUNTAIN SCHOOL ,RFC,5,38,,CO,308008,4364441,39.408133,-107.229977,GPS,10/24/18,10/26/18,10/26/18,http://cdss.state.co.us/onlineTools/Pages/ClimateStation.aspx,cfs,2,10/24/18,10/26/18,0
8584,,9076300,"ROARING FORK RIVER BLW MAROON CREEK NR ASPEN, CO",USGS,5,38,,CO,339673,4343189,39.223203,-106.857321,User supplied,7/1/18,10/18/20,10/19/20,http://cdss.state.co.us/onlineTools/Pages/ClimateStation.aspx,cfs,840,7/1/18,10/18/20,2
8611,,9032050,"LITTLE CABIN CREEK NEAR TABERNASH, CO",USGS,5,51,,CO,436850,4425194,39.974553,-105.739543,User supplied,7/20/18,10/18/20,10/19/20,http://cdss.state.co.us/onlineTools/Pages/ClimateStation.aspx,cfs,821,7/20/18,10/18/20,2
8612,,9032990,"MEADOW CREEK BLW MEADOW CREEK RES NR TABERNASH, CO",USGS,5,51,,CO,435673,4433804,40.052032,-105.754178,User supplied,6/1/18,10/18/20,10/19/20,http://cdss.state.co.us/onlineTools/Pages/ClimateStation.aspx,cfs,870,6/1/18,10/18/20,2
8613,,9033010,"MEADOW CREEK DIVERSION NEAR TABERNASH, CO",USGS,5,51,,CO,433493,4433630,40.050295,-105.779717,User supplied,6/29/18,10/18/20,10/19/20,http://cdss.state.co.us/onlineTools/Pages/ClimateStation.aspx,cfs,842,6/29/18,10/18/20,2
8618,,9032300,"HURD CREEK NEAR TABERNASH, CO",USGS,5,51,,CO,434994,4429506,40.013259,-105.761707,User supplied,7/4/18,10/18/20,10/19/20,http://cdss.state.co.us/onlineTools/Pages/ClimateStation.aspx,cfs,837,7/4/18,10/18/20,2
8628,,9032200,"HAMILTON CREEK NEAR TABERNASH, CO",USGS,5,51,,CO,436250,4427722,39.997283,-105.746816,User supplied,7/13/18,10/18/20,10/19/20,http://cdss.state.co.us/onlineTools/Pages/ClimateStation.aspx,cfs,828,7/13/18,10/18/20,2
8697,ROAMILCO,,ROARING FORK RIVER ABOVE MILL STREET AT ASPEN,RFC,5,38,,CO,343073,4339787,39.193184,-106.817163,GPS,4/11/19,5/4/19,6/12/19,http://cdss.state.co.us/onlineTools/Pages/ClimateStation.aspx,cfs,23,4/11/19,5/4/19,0
9284,ABRJPOCO,,ABRAMS CREEK ABOVE JPO,DWR,5,37,,CO,340226,4383521,39.586535,-106.860548,GPS,12/9/19,10/19/20,10/20/20,http://cdss.state.co.us/onlineTools/Pages/ClimateStation.aspx,cfs,315,12/9/19,10/19/20,0
9378,,9032400,"TRAIL CREEK NEAR TABERNASH, CO",USGS,5,51,,CO,433393,4431202.4,40.028414,-105.780639,User supplied,6/14/19,10/18/20,10/19/20,http://cdss.state.co.us/onlineTools/Pages/ClimateStation.aspx,cfs,492,6/14/19,10/18/20,1